id_facility,name,address,city,state,zip
1861,710 Food Mart,710 S Goodwin,URBANA,IL,61801
2690,99 China,401 S First ST,CHAMPAIGN,IL,61820
2056,A-Plus VIP Lounge,214 W Main ST,URBANA,IL,61801
556,A-Ri-Rang,607 S Wright,CHAMPAIGN,IL,61820
2436,Acacia Fraternity,302 E Armory AVE,CHAMPAIGN,IL,61820
1194,AFC Sushi @ Schnucks No. 1297,200 N Vine ST,URBANA,IL,61802
672,AFC Sushi @ Schnucks No. 707,109 N Mattis,CHAMPAIGN,IL,61821
2629,Agave,405 S Century BLVD,RANTOUL,IL,61866
2606,Aldi,605 N Dunlap AVE,SAVOY,IL,61874
1684,Aldi Inc. No. 90,801 W Interstate DR,CHAMPAIGN,IL,61822
800,Aldi No. 91,3102 E University,URBANA,IL,61802
507,Alexander's Steakhouse,202 W Anthony DR,CHAMPAIGN,IL,61820
163,Allen's Farm Quality Meats,"RR 49, Box 24",HOMER,IL,61849
2471,Alpha Chi Omega Sorority,904 S Lincoln AVE,URBANA,IL,61801
2474,Alpha Delta Pi Sorority,1202 W Nevada ST,URBANA,IL,61801
2486,Alpha Epsilon Phi Sorority,904 S Third ST,CHAMPAIGN,IL,61820
2437,Alpha Epsilon Pi Fraternity,110 E Chalmers ST,CHAMPAIGN,IL,61820
2478,Alpha Gamma Delta Sorority,1106 S Lincoln AVE,URBANA,IL,61801
2452,Alpha Gamma Rho Fraternity,58 E Gregory DR,CHAMPAIGN,IL,61820
2444,Alpha Kappa Lambda Fraternity,401 E Daniel ST,CHAMPAIGN,IL,61820
2480,Alpha Omicron Pi Sorority,706 S Matthews AVE,URBANA,IL,61801
2482,Alpha Phi Sorority,508 E Armory AVE,CHAMPAIGN,IL,61820
2738,Alpha Tau Omega Fraternity,1101 W Pennsylvania AVE,URBANA,IL,61801
2477,Alpha Xi Delta Sorortiy,313 E Chalmers ST,CHAMPAIGN,IL,61820
177,Alto Vineyards,4210 N Duncan RD,CHAMPAIGN,IL,61822
1486,Am-Ko Oriental Foods & Gifts,101 E Springfield AVE,CHAMPAIGN,IL,61820
2037,Ambar India,605 S Wright ST,CHAMPAIGN,IL,61820
1887,Amber Glen Care Center,1704 E Amber LN,URBANA,IL,61802
2216,American Food Mart,904 N Fourth ST,CHAMPAIGN,IL,61820
1468,American Legion Post 1015,412 E Main ST PO BOX 494,MAHOMET,IL,61853
612,American Legion Post 24,705 W Bloomington RD,CHAMPAIGN,IL,61820
227,American Legion Post 287,1132 N Century,RANTOUL,IL,61866
837,American Legion Post 559,704 N Hickory PO BOX 831,CHAMPAIGN,IL,61820
417,American Legion Post 71,107 N Broadway,URBANA,IL,61801
1458,Amvets Fisher Post 52,301 E Division ST,FISHER,IL,61843
464,Amvets Post 3,203 W Hill ST,CHAMPAIGN,IL,61820
100,Anabel Huling Early Learning,106 N Chanute ST,RANTOUL,IL,61866
149,Anabel Huling Early Learning Too,200 S Century,RANTOUL,IL,61866
2329,Anita Purves Nature Center (Summer Food),1505 N Broadway AVE,URBANA,IL,61801
1514,Annapoorna,505 S Neil ST STE 11,CHAMPAIGN,IL,61820
1560,Apple Dumplin',2014 N Highcross RD,URBANA,IL,61802
976,Applebee's,2121 N Prospect,CHAMPAIGN,IL,61821
52,Applebee's Neighborhood Grill & Bar,1201 N Dunlap AVE,SAVOY,IL,61874
989,Aramark Correctional Services,502 S Lierman,URBANA,IL,61801
2560,Arbor Rose of Tolono,503 S Bourne ST,TOLONO,IL,61880
2515,Arby's,1502 N Prospect AVE,CHAMPAIGN,IL,61820
2513,Arby's,1913 W Springfield AVE,CHAMPAIGN,IL,61821
2512,Arby's,207 N Lombard,MAHOMET,IL,61853
2514,Arby's,2310 S Neil ST,CHAMPAIGN,IL,61820
2516,Arby's,509 N Cunningham AVE,URBANA,IL,61801
109,Arby's,760 W Champaign AVE,RANTOUL,IL,61866
2215,Arends Farms Meats & Butcher Shop,203 Chapin ST,IVESDALE,IL,61851
2308,Armory House,1010 S Second ST,CHAMPAIGN,IL,61820
2019,Aroma Cafe,118 N Neil ST,CHAMPAIGN,IL,61820
572,Arrowhead Lanes Bar & Snack Bars,1401 N McKinley,CHAMPAIGN,IL,61821
2366,Art Mart,1705 S Prospect AVE,CHAMPAIGN,IL,61821
1880,Art Theater Co-op,126 W Church ST,CHAMPAIGN,IL,61820
2250,Asian Supermarket,1215 N Prospect AVE,CHAMPAIGN,IL,61820
2316,Asian Taste,502 E John STE 109,CHAMPAIGN,IL,61820
2031,Attie's Bar & Grill,2600 S Stone Creek BLVD,URBANA,IL,61802
2413,Auntie Anne's @ Illini Union,1401 W Green ST,URBANA,IL,61801
2323,Auntie Anne's Soft Pretzels,2000 N Neil ST SPC 260,CHAMPAIGN,IL,61820
1978,Auntie Lee's,49 E Green ST UNIT B,CHAMPAIGN,IL,61820
2096,Autumn Fields Savoy,65 E Airport RD,SAVOY,IL,61874
2305,Azzip Pizza,505 E Green ST STE 103,CHAMPAIGN,IL,61820
2257,B Spirits,306 W Main ST,URBANA,IL,61801
2564,B Won Korean Restaurant,2006 S Neil ST,CHAMPAIGN,IL,61820
2238,Bab Plus Korean Restaurant,700 S Gregory ST STE C,URBANA,IL,61801
2428,Bacaro,113 N Walnut ST,CHAMPAIGN,IL,61820
2547,Bangkok Thai & Pho 911,1104 N Cunningham AVE,URBANA,IL,61802
1730,Bangkok Thai & Pho 911,410 E Green ST UNIT 3,CHAMPAIGN,IL,61820
857,Barkstall School,2201 Hallbeck DR,CHAMPAIGN,IL,61822
943,Barnes & Noble Booksellers,65 E Marketview DR,CHAMPAIGN,IL,61820
2275,Barrelhouse 34,34 E Main ST,CHAMPAIGN,IL,61820
1074,Basil Thai Urbana,"701 S Gregory, Ste. B",URBANA,IL,61801
2497,Baxter's American Grille,100 Trade Centre DR,CHAMPAIGN,IL,61820
773,Baymont Inns & Suites,302 W Anthony DR,CHAMPAIGN,IL,61822
457,Baytowne Apts. Clubhouse,1000 Baytowne DR,CHAMPAIGN,IL,61821
2319,BBQ Premium Chicken,700 S Gregory ST STE F,URBANA,IL,61801
2032,Bentley's Pub,410 N Neil ST,CHAMPAIGN,IL,61820
2276,Best of Africa's Food Store,208 W Griggs ST,URBANA,IL,61801
1948,Best Western Paradise Inn,709 N Dunlap AVE,SAVOY,IL,61874
2561,Best Wok,907 W Marketview DR STE 8,CHAMPAIGN,IL,61822
1004,Biaggi's Ristorante Italiano,2235 S Neil ST,CHAMPAIGN,IL,61820
1820,Big Grove Tavern,1 E Main ST UNIT 101,CHAMPAIGN,IL,61820
1349,Big JJ Fish & Chicken,1114 N Market,CHAMPAIGN,IL,61820
2244,Big Lots No. 438,2004 W Springfield AVE,CHAMPAIGN,IL,61820
1680,Biggby Coffee,2000 N Neil ST,CHAMPAIGN,IL,61820
1946,Biggby Coffee,401 S Mattis AVE,CHAMPAIGN,IL,61821
2648,Biggby Coffee,902 Meijer DR STE 1,CHAMPAIGN,IL,61822
491,Billy Barooz,2521 Village Green PL,CHAMPAIGN,IL,61821
313,Billy Bob's BBQ,105 E Broadway AVE,OGDEN,IL,61859
1756,Binny's Beverage Depot,802 W Town Center BLVD,CHAMPAIGN,IL,61820
1329,Black Dog Smoke & Ale House,201 N Broadway AVE,URBANA,IL,61801
2207,Black Dog Smoke & Ale House,320 N Chestnut,CHAMPAIGN,IL,61820
2626,Blackbird,119 W Main ST,URBANA,IL,61801
1384,Blind Pig Brewery,120 N Neil ST,CHAMPAIGN,IL,61820
871,Blind Pig Co.,120 N Walnut,CHAMPAIGN,IL,61820
2347,Blue Ribbon Rub Company @ Stagecoach,2203 CR 3000N,GIFFORD,IL,61847
2080,Blue Star Family Restaurant,201 E Division ST,FISHER,IL,61843
1740,Blue Star II,W Bradley AVE,CHAMPAIGN,IL,61821
595,Bo Bo China,404 E Green,CHAMPAIGN,IL,61820
1921,Bo Bo's BBQ,1511 W Springfield AVE,CHAMPAIGN,IL,61822
541,Bob Evans No. 95,1813 N Neil ST,CHAMPAIGN,IL,61820
819,Bombay Indian Grill,401 E Green ST,CHAMPAIGN,IL,61820
2652,Bombay Market,1726 W Bradley AVE,CHAMPAIGN,IL,61821
2729,Boneyard Coffee & Tea,702 S Wright ST,URBANA,IL,61801
1649,Boomerang's Bar & Grill,1309 E Washington,URBANA,IL,61801
2033,Bottenfield Elementary School,1801 S Prospect AVE,CHAMPAIGN,IL,61820
497,Bradley Learning Center,1311 Florida AVE,URBANA,IL,61801
537,Brass Rail,15 E University,CHAMPAIGN,IL,61820
2000,Bread Company,706 S Goodwin AVE,URBANA,IL,61801
2537,Brewlab Coffee,630 S Fifth ST,CHAMPAIGN,IL,61820
277,Bridget's Blarney Stone,207 Chapin PO BOX 71,IVESDALE,IL,61851
2191,Brixx Wood Fired Pizza,2043 S Neil ST,CHAMPAIGN,IL,61820
59,Broadmeadow Elem. School,500 Sunview RD,RANTOUL,IL,61866
598,Bromley Hall/Tice Foods,910 S Third ST,CHAMPAIGN,IL,61820
737,Brookdale Urbana,1706 E Amber LN,URBANA,IL,61802
2331,Brookens Gym (Summer Food),1776 E Washington ST,URBANA,IL,61802
231,Brookhill Golf Course,3150 CR 1700E,RANTOUL,IL,61866
1521,Brookstone Estates,300 Twin Lakes DR,RANTOUL,IL,61866
134,"Bud's Bar, Inc.",122 N Kentucky AVE,RANTOUL,IL,61866
2654,Buffalo Wild Wings No. 3092,907 W Marketview DR,CHAMPAIGN,IL,61822
2655,Buffalo Wild Wings No. 3327,1335 Savoy Plaza DR,SAVOY,IL,61874
1344,Bundles of Joy Learning Center,1508 N Ridgeway,CHAMPAIGN,IL,61821
555,Bunny's Tavern,119 W Water,URBANA,IL,61801
1688,Burger King,1325 N Dunlap AVE,SAVOY,IL,61874
1339,Burger King,1708 S Philo RD,URBANA,IL,61802
1405,Burger King,2005 W Springfield AVE,CHAMPAIGN,IL,61821
1406,Burger King,2110 N Prospect AVE,CHAMPAIGN,IL,61820
40,Burger King,720 W Champaign AVE,RANTOUL,IL,61866
2580,Burger King No. 23064,1106 W University AVE,URBANA,IL,61801
1709,Burrito King,408 E Green ST,CHAMPAIGN,IL,61820
1796,Burrito King No. 1 (Mobile) CU,408 E Green ST,CHAMPAIGN,IL,61820
2233,Busy Bunnies Preschool,106 W Front ST,FISHER,IL,61843
1526,Butcher Boy Burgers,422 S Garrard,RANTOUL,IL,61866
13,Buzzard's Fine Dining & Other Things,111 S Third ST,FISHER,IL,61843
2602,C & C Kitchen,107 E Sangamon,RANTOUL,IL,61866
242,C-K German Roasted Almonds,206 S Garrard,RANTOUL,IL,61866
1569,C-U Public Health District (Summer Food),201 W Kenyon RD,CHAMPAIGN,IL,61820
1361,Cactus Grill,1405 S Neil,CHAMPAIGN,IL,61820
727,CafÃ© Kopi,109 N Walnut ST,CHAMPAIGN,IL,61820
2639,Cafe Social Here,308 E Green ST STE 1,CHAMPAIGN,IL,61820
2066,Caffe Bene,700 S Gregory ST,URBANA,IL,61801
2701,Caffe Bene Green,524 E Green ST STE 102,CHAMPAIGN,IL,61820
1798,Caffe Paradiso,801 S Lincoln AVE,URBANA,IL,61801
780,Cake Artists Studio,1100 W Bloomington RD,CHAMPAIGN,IL,61821
2182,Circle K No. 1406,1503 N Neil ST,CHAMPAIGN,IL,61820
2178,Circle K No. 1413,507 W University AVE,URBANA,IL,61801
2188,Circle K No. 1430,1295 E Grove AVE,RANTOUL,IL,61866
2185,Circle K No. 1432,506 S Prairieview RD,MAHOMET,IL,61853
2177,Circle K No. 1434,810 W Green ST,URBANA,IL,61801
2181,Circle K No. 1438,3604 N Mattis AVE,CHAMPAIGN,IL,61822
2180,Circle K No. 1442,1511 N Prospect AVE,CHAMPAIGN,IL,61820
2179,Circle K No. 1443,4202 W Springfield AVE,CHAMPAIGN,IL,61822
2187,Circle K No. 1445,222 S Murray RD,RANTOUL,IL,61866
1011,Circle K No. 159,1809 N Cunningham,URBANA,IL,61802
2420,Cambridge Sweets Confection @ Marble's,104 W Tomaras ST,SAVOY,IL,61874
2208,Cameron's Catering Inc. @ Marble's,104 W Tomaras AVE,SAVOY,IL,61874
1773,Camp Caring Place,808 W University AVE,URBANA,IL,61801
1210,Camp Kiwanis,219 S Lake of the Woods RD,MAHOMET,IL,61853
2390,Campus Burger/Chick Shack,2000 N Neil ST SPC 706,CHAMPAIGN,IL,61820
2143,Campus Pantry,112 E Green ST,CHAMPAIGN,IL,61820
560,Canaan Academy,207 N Central AVE,URBANA,IL,61801
1633,Candlewood Suites,1917 Moreland BLVD,CHAMPAIGN,IL,61822
888,Canopy,708 S Goodwin,URBANA,IL,61801
2150,Caribbean Grill (Mobile) @ Refinery,2135 S Neil ST,CHAMPAIGN,IL,61820
425,Circle K No. 38,809 W Green,URBANA,IL,61801
902,Circle K No. 90,601 N Neil,CHAMPAIGN,IL,61820
838,Circle K No. 97,1101 N Prospect,CHAMPAIGN,IL,61820
2616,City Market of Champaign,301 Bloomington RD,CHAMPAIGN,IL,61820
2589,City Quick Mart,2005 S Philo RD,URBANA,IL,61802
1231,Clark Bar,207 W Clark ST,CHAMPAIGN,IL,61820
776,"Clark-Lindsey Village, Inc.",101 W Windsor RD,URBANA,IL,61802
1822,Classic Events,2560 Stone Creek BLVD,URBANA,IL,61802
1896,Clingan Auction & Realty,1707 CR 2200 N RD,ST. JOSEPH,IL,61873
1359,Clybourne,706 S Sixth ST,CHAMPAIGN,IL,61820
1372,Cocomero,709 S Wright ST,CHAMPAIGN,IL,61820
1089,Cohen Center for Jewish Life,503 E John ST,CHAMPAIGN,IL,61820
2374,Cold Stone Creamery,505 E Green ST,CHAMPAIGN,IL,61820
2570,College Chefs @ Traxside,4 E Holden ST,TOLONO,IL,61880
2105,Colonial Liquors,219 S Maplewood DR,RANTOUL,IL,61866
2023,Columbia Center,1103 N Neil ST,CHAMPAIGN,IL,61820
2317,Comfort Suites,2001 N Lincoln AVE,URBANA,IL,61801
1262,Common Ground Food Co-op,300 S Broadway AVE STE 166,URBANA,IL,61801
1555,Community Service Ctr. (Food Pantry),520 E Wabash,RANTOUL,IL,61866
1427,Community United Church of Christ,805 S Sixth ST,CHAMPAIGN,IL,61820
1930,Complete Care Pharmacy,14 E Washington,CHAMPAIGN,IL,61820
2710,Complete Nutrition,1903 N Neil ST STE F,CHAMPAIGN,IL,61820
528,Cookie Jar,712 S Sixth,CHAMPAIGN,IL,61820
1516,Cookies by Design,510 N Cunningham AVE STE 4 & 5,URBANA,IL,61802
2190,Cool/Popped Bliss No. 9309 (Mobile),6 Southwood CT,CHAMPAIGN,IL,61821
174,Corner Concession,Rt. 136 West,GIFFORD,IL,61847
98,Country Health Nursing Home,2304 CR 3000 N,GIFFORD,IL,61847
2291,Country Inn & Suites,102 W Marketview DR,CHAMPAIGN,IL,61822
1214,Country Tyme Lanes,1568 E Grove,RANTOUL,IL,61866
2054,Countryside School,4301 W Kirby,CHAMPAIGN,IL,61822
854,County Market (Deli/Coffee),2901 W Kirby AVE,CHAMPAIGN,IL,61821
1363,County Market (Deli/Coffee),331 E Stoughton ST,CHAMPAIGN,IL,61820
1149,County Market (Groc/Mt/Bak),331 E Stoughton ST,CHAMPAIGN,IL,61820
808,County Market (Groc/Mt/Bak/Prod),2901 W Kirby AVE,CHAMPAIGN,IL,61821
1757,County Market No. 568 (Deli),1201 E Grove AVE,RANTOUL,IL,61866
1609,County Market No. 568 (Groc/Mt/Bak/Prod),1201 E Grove AVE,RANTOUL,IL,61866
656,Courier CafÃ©,111 N Race ST,URBANA,IL,61801
628,Cowboy Monkey,6 Taylor ST,CHAMPAIGN,IL,61820
2611,Cracked on Green,619 E Green ST,CHAMPAIGN,IL,61820
2098,Cracked Truck Commissary,1205 N Harris AVE,CHAMPAIGN,IL,61820
2035,Cracked Truck No. 0899 (Mobile) CU,1205 N Harris AVE,CHAMPAIGN,IL,61820
1814,Cracked Truck No. 4773 (Mobile) CU,1205 N Harris AVE,CHAMPAIGN,IL,61820
883,Cracker Barrel No. 129,2101 N Kenyon RD,URBANA,IL,61801
1027,Crane Alley,115 W Main ST,URBANA,IL,61801
587,Cravings,603 S Wright ST,CHAMPAIGN,IL,61820
1199,Cream & Flutter,114 N Walnut ST,CHAMPAIGN,IL,61820
2335,Creative Dining Services @ Kraft,1701 Bradley AVE,CHAMPAIGN,IL,61821
2416,Cultivators Food Pantry/Kids Club,555 S Maplewood DR,RANTOUL,IL,61866
833,Culver's,2302 S Neil ST,CHAMPAIGN,IL,61820
713,Culver's,903 W Marketview,CHAMPAIGN,IL,61822
897,Cunningham Children's Home,1301 N Cunningham,URBANA,IL,61801
190,Curtis Orchard,3902 S Duncan,CHAMPAIGN,IL,61822
653,CVS No. 8667,1818 S Philo RD,URBANA,IL,61802
547,CVS No. 8683,107 W Green ST,CHAMPAIGN,IL,61820
566,CVS No. 8686,243 S Mattis,CHAMPAIGN,IL,61821
1836,CVS Pharmacy No. 5887,1111 N Dunlap,SAVOY,IL,61874
268,CVS Pharmacy No. 6933,1205 E Grove ST,RANTOUL,IL,61866
152,CVS Pharmacy No. 6935,804 Eastwood DR B,MAHOMET,IL,61853
1667,Caribbean Grill Catering @ Refinery,2302 W John ST,CHAMPAIGN,IL,61821
2625,Caribbean Grill Restaurant,2135 S Neil ST,CHAMPAIGN,IL,61820
675,Caring Place Child Care,809 W Park ST,URBANA,IL,61801
1799,Carle Auditory Oral School,805 W Park ST,URBANA,IL,61801
999,Carle Aux. Breezeway Express,611 W Park ST,URBANA,IL,61801
532,Carle Coffee Shop,611 W Park ST,URBANA,IL,61801
873,Carle Hospital (Kitchen),611 W Park,URBANA,IL,61801
2409,Carle South Clinic Coffee Bar,602 W University AVE,URBANA,IL,61801
704,Carmella's CrÃ¨me,1611 W Springfield AVE,CHAMPAIGN,IL,61821
1906,Carmike 13,910 Meijer DR,CHAMPAIGN,IL,61822
2393,Carriage Crossing Senior Living,1701 Congressional WAY,CHAMPAIGN,IL,61822
1768,Carrie Busey Elementary School,304 Prairie Rose LN,SAVOY,IL,61874
2386,Casa Fiesta Grill,215 E Sangamon,RANTOUL,IL,61866
1840,Casey's General Store,2100 E University AVE,URBANA,IL,61802
200,Casey's General Store No. 1492,500 Central AVE,THOMASBORO,IL,61878
201,Casey's General Store No. 1661,408 N Lincoln,PHILO,IL,61864
202,Casey's General Store No. 1669,2300 CR 3000N,GIFFORD,IL,61847
198,Casey's General Store No. 1770,401 E Warren ST,St Joseph,IL,61873
199,Casey's General Store No. 2007,102 S Prairieview RD,MAHOMET,IL,61853
196,Casey's General Store No. 2021,500 S Century BLVD,RANTOUL,IL,61866
144,Casey's General Store No. 2031,502 W Main ST,SIDNEY,IL,61877
157,Casey's General Store No. 2057,206 E Division ST PO BOX 40,FISHER,IL,61843
260,Casey's General Store No. 2224,502 N Main ST,HOMER,IL,61849
354,Casey's General Store No. 2258,501 N Long ST,TOLONO,IL,61880
1625,Casey's General Store No. 2930,300 S Century BLVD,RANTOUL,IL,61866
2376,CBPB Popcorn Shop,22 E Springfield AVE,CHAMPAIGN,IL,61820
453,Centennial High School,913 S Crescent DR,CHAMPAIGN,IL,61820
1567,Centennial High School (Summer Food),913 Crescent DR,CHAMPAIGN,IL,61820
1738,Centennial/Central H.S. Concessions (Outdoor-Football & Baseball),913 S Crescent DR,CHAMPAIGN,IL,61821
1495,Center of Hope Church (Food Pantry),1109 N Fourth ST,CHAMPAIGN,IL,61820
593,Central High School,610 W University,CHAMPAIGN,IL,61820
1737,Central High School Concessions (Indoor),610 W University AVE,CHAMPAIGN,IL,61820
362,Central Tavern,"403 Main St., Box 154",THOMASBORO,IL,61878
1019,Champaign Bickford Cottage (2 Kitchens: Main & Memory Care),1002 S Staley RD,CHAMPAIGN,IL,61822
1044,Champaign Co. Nursing Home,500 Art Bartell RD,URBANA,IL,61801
925,Champaign Country Club,1211 S Prospect,CHAMPAIGN,IL,61820
2240,Champaign Country Club Snack Bar,1211 S Prospect,CHAMPAIGN,IL,61820
758,Champaign Courtyard,1811 Moreland BLVD,CHAMPAIGN,IL,61820
822,Champaign Fairfield Inn & Suites,1807 Moreland BLVD,CHAMPAIGN,IL,61820
2583,Champaign Garden Inn,411 W Hill ST,CHAMPAIGN,IL,61820
932,Champaign Head Start,809 N Neil ST,CHAMPAIGN,IL,61820
2542,Champaign Le Peep,2209 S Neil ST,CHAMPAIGN,IL,61820
2578,Champaign Library Cafe,200 W Green ST,CHAMPAIGN,IL,61820
1902,Champaign Masonic Center,14 Bel-Air CT,CHAMPAIGN,IL,61820
1789,Champaign Mini Mart,1202 N Mattis AVE,CHAMPAIGN,IL,61821
1471,Champaign Regional Rehab Center,302 Burwash AVE,SAVOY,IL,61874
2637,Charley's Philly Steaks,203 N Lombard ST,MAHOMET,IL,61853
339,Charlie's,102 N Main,HOMER,IL,61849
1920,Chartwells @ Parkland College,2400 W Bradley AVE,CHAMPAIGN,IL,61821
1501,Cheese & Crackers,1715 W Kirby AVE UNIT A-08,CHAMPAIGN,IL,61821
1832,Chester's BBQ (Mobile) @ Project 47 (District),101 S Lombard ST,MAHOMET,IL,61853
1177,Chesterbrook Academy,2001 S Oak ST,CHAMPAIGN,IL,61820
661,Chesterbrook Academy,2208 S Duncan,CHAMPAIGN,IL,61822
2487,Chi Omega Sorority,907 S Wright ST,CHAMPAIGN,IL,61820
2440,Chi Psi Fraternity,606 W Ohio ST,URBANA,IL,61801
705,Children's Center Day Care,304 S Race ST,URBANA,IL,61801
1217,Chili's Grill & Bar,1905 N Prospect,CHAMPAIGN,IL,61821
10,China Express,1235 E Grove AVE,RANTOUL,IL,61866
2435,China Garden,114 N Vine ST STE M,URBANA,IL,61801
336,China King,205 E Warren,ST. JOSEPH,IL,61873
765,China King,2145 S Neil ST,CHAMPAIGN,IL,61820
804,Chinatown Buffet,713 Marketview DR,CHAMPAIGN,IL,61822
1821,Chipotle Mexican Grill No. 1837,903 W Anthony DR STE A,CHAMPAIGN,IL,61820
813,Chipotle Mexican Grill No. 771,"528 E Green St., Ste. 101",CHAMPAIGN,IL,61820
1687,Chopstix,202 E Green ST UNIT 1,CHAMPAIGN,IL,61820
1563,Church of the Brethren (Food Pantry),1210 N Neil ST,CHAMPAIGN,IL,61820
644,Circle K  No. 70,1301 S Neil ST,CHAMPAIGN,IL,61820
856,Circle K  No. 94,1821 S Philo RD,URBANA,IL,61801
745,Circle K No. 100,609 E University,CHAMPAIGN,IL,61820
577,Circle K No. 103,1713 W John ST,CHAMPAIGN,IL,61821
63,Circle K No. 105,301 S Murray RD,RANTOUL,IL,61866
1026,Circle K No. 1226,1301 S Mattis,CHAMPAIGN,IL,61821
1103,Circle K No. 1234,1501 N Lincoln AVE,URBANA,IL,61801
1232,Circle K No. 1300,2315 W Springfield AVE,CHAMPAIGN,IL,61821
1233,Circle K No. 1301,2011 N Lincoln AVE,URBANA,IL,61801
1234,Circle K No. 1312,1605 N Cunningham AVE,URBANA,IL,61802
2176,Circle K No. 1399,1601 W Springfield AVE,CHAMPAIGN,IL,61821
2184,Circle K No. 1400,407 N Dunlap UNIT A,SAVOY,IL,61874
2186,Circle K No. 1401,602 E Oak,MAHOMET,IL,61853
2183,Circle K No. 1403,59 E Green ST,CHAMPAIGN,IL,61820
695,D.P. Dough,33 E Green ST UNIT B,CHAMPAIGN,IL,61820
2617,Daily Bread & Soup Kitchen,116 N First ST,CHAMPAIGN,IL,61820
57,Dairy Queen,1103 Klein AVE,RANTOUL,IL,61866
164,Dairy Queen,1501 Lyndhurst Alley,SAVOY,IL,61874
15,Dairy Queen,601 E Oak ST,MAHOMET,IL,61853
14,Dairy Queen,701 N Third ST,ST. JOSEPH,IL,61873
984,Dairy Queen,911 W University,URBANA,IL,61081
1548,Daly's Sports Bar,116 W Washington,PHILO,IL,61864
2125,Dancing Dog Eatery & Juicery,126 W Main ST,URBANA,IL,61801
2314,Dave's Dogs (Mobile) @ CUCC,805 S Sixth ST,CHAMPAIGN,IL,61820
2365,Dave's Dogs Commissary @ CUCC,805 S Sixth ST,CHAMPAIGN,IL,61820
2400,Dave's Dogs Mobile Trailer @ CUCC,805 S Sixth ST,CHAMPAIGN,IL,61820
584,Days Inn,914 W Bloomington RD,CHAMPAIGN,IL,61821
2106,Days Inn Rantoul,801 W Champaign AVE,RANTOUL,IL,61866
2442,Delta Chi Fraternity,1111 S First ST,CHAMPAIGN,IL,61820
2472,Delta Delta Delta Sorority,508 E Chalmers ST,CHAMPAIGN,IL,61820
2475,Delta Gamma Sorority,1207 W Nevada ST,URBANA,IL,61801
2449,Delta Sigma Phi Fraternity,105 E Armory AVE,CHAMPAIGN,IL,61820
2453,Delta Tau Delta Fraternity,401 E John ST,CHAMPAIGN,IL,61820
2446,Delta Upsilon Fraternity,312 E Armory AVE,CHAMPAIGN,IL,61820
2484,Delta Zeta Sorority,710 W Ohio ST,URBANA,IL,61801
1888,Denny's Restaurant,702 W Town Center BLVD,CHAMPAIGN,IL,61822
1931,Derailed,57 E Main ST,CHAMPAIGN,IL,61820
1620,Destihl,301 N Neil ST UNIT 101,CHAMPAIGN,IL,61820
2621,Diamond's Cafe,1101 N Mattis AVE,CHAMPAIGN,IL,61821
1637,Discount Gas,102 S Mattis AVE,CHAMPAIGN,IL,61821
1818,Dish @ Illinois Terminal,45 E University FL 4,CHAMPAIGN,IL,61820
2274,Dish @ Judah Christian School,908 N Prospect AVE,CHAMPAIGN,IL,61820
1142,Dodd's 4-Plex,Parkland Way,CHAMPAIGN,IL,61821
2355,Dollar General,307 N Lincoln ST,PHILO,IL,61864
1955,Dollar General No. 14229,602 S Prairieview RD,MAHOMET,IL,61853
2302,Dollar General No. 15852,401 W Division ST,FISHER,IL,61843
2325,Dollar General No. 16570,3001 W Bradley AVE,CHAMPAIGN,IL,61821
1320,Dollar General No. 1819,1506 N Cunningham AVE,URBANA,IL,61802
2320,Dollar General No. 4590,409 E Champaign AVE,RANTOUL,IL,61866
27,Dollar General No. 9960,507 N Long,TOLONO,IL,61880
823,Dollar General Store # 7187,817 Bloomington RD,CHAMPAIGN,IL,61820
616,Dollar General Store No. 2277,2004 W Springfield UNIT B,CHAMPAIGN,IL,61821
2510,Dollar Tree No. 06399,235 S Mattis AVE,CHAMPAIGN,IL,61821
1369,Dollar Tree No. 2460,1333 Savoy Plaza,SAVOY,IL,61874
2018,Dollar Tree No. 5114,212 Twin Lakes DR,RANTOUL,IL,61866
2057,Dollar Tree No. 5414,1303 E Colorado AVE,URBANA,IL,61802
1219,Dollar Tree No. 546,2009 N Prospect AVE,CHAMPAIGN,IL,61821
2243,Domino's Pizza,205 N Lombard ST,MAHOMET,IL,61853
2202,Domino's Pizza No. 2900,1108 N Cunningham AVE,URBANA,IL,61802
2201,Domino's Pizza No. 2920,520 S Tanner,RANTOUL,IL,61866
2200,Domino's Pizza No. 2921,102 E Green ST,CHAMPAIGN,IL,61820
2199,Domino's Pizza No. 2923,1702 W Bradley AVE,CHAMPAIGN,IL,61821
2198,Domino's Pizza No. 2924,1803 W Kirby AVE,CHAMPAIGN,IL,61821
1035,Don Moyer - Park St. Unit,201 E Park ST,CHAMPAIGN,IL,61820
1296,Don Moyer Club (Summer Food),201 E Park ST,CHAMPAIGN,IL,61820
754,Dos Reales,1407 N Prospect AVE,CHAMPAIGN,IL,61820
2356,Dotty's,12 E Green ST,CHAMPAIGN,IL,61820
2363,Dotty's,1901 S Philo RD,URBANA,IL,61802
2264,Dotty's,501 S Mattis STE C,CHAMPAIGN,IL,61821
2211,Dotty's,914 Town Center BLVD,CHAMPAIGN,IL,61821
1268,Douglass Community Center (Summer Food),512 E Grove,CHAMPAIGN,IL,61820
761,DQ Grill & Chill,3602 N Mattis AVE,CHAMPAIGN,IL,61821
706,Dr. Howard School,1117 W Park AVE,CHAMPAIGN,IL,61820
603,Dr. Williams Elementary School,2102 E Washington,URBANA,IL,61801
2210,Dragon Fire (Mobile) @ Marble's,104 W Tomaras AVE,SAVOY,IL,61874
2122,Dragon Fire Commissary @ Marble's,104 W Tomaras,SAVOY,IL,61874
2254,Dragon Fire Mobile @ Marble's (County),104 W Tomaras,SAVOY,IL,61874
531,Drury Inn & Suites,905 W Anthony DR,CHAMPAIGN,IL,61820
1660,Dublin O'Neil's/301 Mongolia,301 N Neil ST STE 107,CHAMPAIGN,IL,61820
2340,Dunkin Donuts,1302 N Prospect AVE,CHAMPAIGN,IL,61820
2341,Dunkin Donuts,607 E Green ST,CHAMPAIGN,IL,61820
2337,Dunkin Donuts/Baskin Robbins,402 S Century BLVD,RANTOUL,IL,61866
2339,Dunkin Donuts/Baskin Robbins,404 W University AVE,URBANA,IL,61801
2338,Dunkin Donuts/Baskin Robbins,515 S Neil ST,CHAMPAIGN,IL,61820
2371,Eagle's View,200 W International AVE,RANTOUL,IL,61866
626,Eagles Club,605 Edgebrook DR,CHAMPAIGN,IL,61820
685,Early Learning,809 W Kirby,CHAMPAIGN,IL,61820
777,Eastland Suites,1907 N Cunningham,URBANA,IL,61801
62,Eastlawn Elementary School,650 N Maplewood DR,RANTOUL,IL,61866
72,"Eater, J.W., Jr. High & Indoor Concession",400 E Wabash AVE,RANTOUL,IL,61866
1771,Eden Supportive Living,222 N State ST,CHAMPAIGN,IL,61820
1204,Edible Arrangements,49 E Marketview DR,CHAMPAIGN,IL,61820
586,Edison Middle School,306 W Green ST,CHAMPAIGN,IL,61820
2025,Einstein Bros. Bagels,803 W Anthony DR,CHAMPAIGN,IL,61822
1530,Einstein Bros. Bagels,901 W University AVE STE 102,URBANA,IL,61801
1928,Einstein Bros. Bagels @ Illini Union,1401 W Green ST,URBANA,IL,61801
2310,Einstein Bros. Bagels @ Seibel Ctr.,201 N Goodwin AVE,URBANA,IL,61801
2311,Einstein Bros. Bagels @ Vet Med,2001 S Lincoln AVE,URBANA,IL,61801
2612,Einstein Bros. Bagels @ Willard Airport,11 Airport RD,SAVOY,IL,61874
420,El Charro Mexican Grocery,55 E Green ST,CHAMPAIGN,IL,61820
2398,El Mercadito Mexican Store,122 N Garrard ST,RANTOUL,IL,61866
1988,El Oasis,510 N Cunningham AVE STE 14,URBANA,IL,61802
2418,El Patio Mexican Restaurant,2506 Village Green PL,CHAMPAIGN,IL,61822
1842,El Progreso,1001 W Bloomington RD,CHAMPAIGN,IL,61821
1949,El Progreso,510 N Cunningham AVE STE 7-9,URBANA,IL,61802
1313,El Toro Bravo,2561 W Springfield AVE,CHAMPAIGN,IL,61821
1640,El Toro ll,723 S Neil ST,CHAMPAIGN,IL,61820
2076,El Toro of Mahomet,703 Eastwood Center DR,MAHOMET,IL,61853
1289,El Toro of Rantoul,1668 E Grove AVE,RANTOUL,IL,61866
1983,El Toro of St. Joseph,221 E Lincoln ST,ST. JOSEPH,IL,61873
172,Elite Learning Center,701 N Main ST,ST. JOSEPH,IL,61873
2227,Emma's Eatery,105 N Mattis AVE UNIT B,CHAMPAIGN,IL,61821
2138,Emma's Eatery,114 N Vine ST STE O,URBANA,IL,61802
1942,Emma's Eatery,1333 Savoy Plaza LN STE 6,SAVOY,IL,61874
2049,Emma's Eatery,1812 Glenn Park DR,CHAMPAIGN,IL,61821
2131,Emma's Eatery,907 W Marketview DR UNIT 7,CHAMPAIGN,IL,61821
2574,Empanadas House (Commissary) @ Cracked Comm.,1205 N Harris,CHAMPAIGN,IL,61820
1945,Empanadas House (Mobile) @ Cracked Commissary,1205 N Harris AVE,CHAMPAIGN,IL,61820
2692,Empanadas House Kiosk,2000 N Neil ST,CHAMPAIGN,IL,61820
904,Empire Chinese Restaurant,410 E Green ST,CHAMPAIGN,IL,61820
1064,Eric's Catering No. 1 (Mobile),1908 Linview UNIT 3-4,URBANA,IL,61801
2604,Espiga de Maize,409 Bloomington RD,CHAMPAIGN,IL,61820
798,Espresso Royale,1117 W Oregon,URBANA,IL,61801
546,Espresso Royale,2409 Village Green,CHAMPAIGN,IL,61822
673,Espresso Royale,602 Daniel ST,CHAMPAIGN,IL,61820
987,Espresso Royale & Bakery Commissary,1411 S Neil ST,CHAMPAIGN,IL,61820
959,Espresso Royale (Art Museum),500 E Peabody DR,CHAMPAIGN,IL,61820
1459,Espresso Royale @ BIF,515 E Gregory DR RM 1023,CHAMPAIGN,IL,61820
2296,Espresso Royale @ Grainger Library,1301 W Springfield AVE,URBANA,IL,61801
439,Espresso Royale @ UI Library,1402 W Gregory DR,URBANA,IL,61801
458,Esquire Lounge Inc.,106 N Walnut,CHAMPAIGN,IL,61820
2571,Evo Cafe,711 S Sixth ST,CHAMPAIGN,IL,61820
1031,Family Dollar No. 21248,1227 E Grove AVE,RANTOUL,IL,61866
1323,Family Dollar No. 27549,1110 S Philo RD,URBANA,IL,61801
1356,Family Dollar No. 27837,1204 N Market ST,CHAMPAIGN,IL,61820
1929,Family Table Restaurant,1724 E Grove AVE,RANTOUL,IL,61866
1164,Family Video,1901 S Philo RD,URBANA,IL,61802
1169,Family Video,301 E Champaign AVE,RANTOUL,IL,61866
1161,Family Video No. 81,1101 N Mattis AVE,CHAMPAIGN,IL,61821
2242,Fannie May Candies,402 S Neil ST,CHAMPAIGN,IL,61820
561,Far East Food Store,105 S Fifth ST,CHAMPAIGN,IL,61820
2464,Farm House Fraternity,809 E Pennsylvania AVE,URBANA,IL,61801
621,Farren's Pub and Eatery,308 N Randolph ST,CHAMPAIGN,IL,61820
1745,Fat City Bar & Grill/City Center,505 S Chestnut ST,CHAMPAIGN,IL,61820
1581,Fazoli's No. 1796,2029 N Prospect AVE,CHAMPAIGN,IL,61821
2746,Fernando's (Commissary) @ Marble's,104 W Tomaras AVE,SAVOY,IL,61874
2387,Fernando's (Mobile) @ Marble's,104 W Tomaras AVE,SAVOY,IL,61874
768,Fiesta CafÃ©,216 S First ST,CHAMPAIGN,IL,61820
18,Filippo's Pizza & Italian Food,2012-A Tin Cup RD,MAHOMET,IL,61853
2674,Fired (Mobile) @ S & S Foods,310 Tiffany CT STE E,CHAMPAIGN,IL,61821
652,Firehaus,708 S Sixth ST,CHAMPAIGN,IL,61820
2081,Firehouse Subs,803 W Anthony DR,CHAMPAIGN,IL,61822
789,First Federal Savings,1311 S Neil ST,CHAMPAIGN,IL,61820
1109,First Heritage Inn,420 S Murray RD,RANTOUL,IL,61866
103,First School,1403 E Oak ST,MAHOMET,IL,61853
702,First United Methodist Child Care,210 W Church ST,CHAMPAIGN,IL,61820
1166,First Wok,1815 S Philo RD,URBANA,IL,61802
1676,Fisher Comm. Church Christian Kids Care,100 Randolph ST,FISHER,IL,61843
38,Fisher Comm. Church Kids Club,205 S Third ST,FISHER,IL,61843
95,Fisher Grade School,801 S Fifth ST,FISHER,IL,61843
1708,Fisher H.S. Concessions (Outdoor),501 S 3rd ST,FISHER,IL,61843
1893,Fisher Jr./Sr. High School,211 W Division ST,FISHER,IL,61843
2222,Five Guys Burgers & Fries,901 W Anthony DR,CHAMPAIGN,IL,61821
2373,Flamingo Slots Urbana,1720 Philo RD STE B,URBANA,IL,61802
2119,Flying Machine Coffee,208 W Main ST,URBANA,IL,61801
927,Franklin Middle School,817 N Harris,CHAMPAIGN,IL,61820
2303,Franklin Middle School (Summer Food),817 N Harris,CHAMPAIGN,IL,61820
1014,Freedom Oil Co.,1812 N Cunningham,URBANA,IL,61802
283,Freeman's Tavern,108 W Main PO BOX 58,ROYAL,IL,61871
2410,Fresh International Market (Rest./Bak/Sushi/Bubble Tea,505 S Neil ST STE 4-7,CHAMPAIGN,IL,61820
314,Friar Tuck Beverage,1333 Savoy Plaza DR STE 110,SAVOY,IL,61874
1101,Friends Meeting House,1904 E Main,URBANA,IL,61802
2769,Friends of Champaign County Food Pantry,201 W Kenyon RD,CHAMPAIGN,IL,61820
2194,Fusilli Tony's Italian Food (Mobile) @ Marble's,104 W Tomaras AVE,SAVOY,IL,61874
2092,Fusilli Tony's Italian Food @ Marble's,104 W Tomaras AVE,SAVOY,IL,61874
46,Game On Sports Tavern,121 E Market,SADORUS,IL,61872
699,Garcia's Commissary,313 N Mattis,CHAMPAIGN,IL,61821
631,Garcia's Pizza in a Pan,313 N Mattis AVE,CHAMPAIGN,IL,61821
1267,Garden Hills Elementary (Summer Food),2001 Garden Hills,CHAMPAIGN,IL,61820
710,Garden Hills School,2001 Garden Hills,CHAMPAIGN,IL,61820
2220,Geschenk Boutique Coffee & Tea Haus,228 E Lincoln PO BOX 534 Unit 1/2,ST. JOSEPH,IL,61873
1470,GFS Marketplace LLC,502 W Town Center BLVD,CHAMPAIGN,IL,61822
68,Gifford Community School,406 S Main ST,GIFFORD,IL,61847
2587,Giordano's,2000 N Neil ST STE 700,CHAMPAIGN,IL,61822
2212,Glenwood of Mahomet,1709 S Division ST,MAHOMET,IL,61853
1523,Golden Harbor,505 S Neil ST UNIT 1,CHAMPAIGN,IL,61820
1016,Golden Wok,405 E University AVE,CHAMPAIGN,IL,61820
2088,Goldy's Bar & Grill,123 S Mattis AVE UNIT 15,CHAMPAIGN,IL,61821
2059,Good Fella,905 S Neil ST,CHAMPAIGN,IL,61820
1934,Goodrich Savoy 16 Imax,232 W Burwash DR,SAVOY,IL,61874
1491,Grace Lutheran Church (Food Pantry),313 S Prospect AVE,CHAMPAIGN,IL,61820
1541,Gray's Commissary,1108 N Harvey,URBANA,IL,61801
1498,Great Beginnings Learning Center,2909 Waterson CT,CHAMPAIGN,IL,61822
2429,Great Harvest Bread Company,2149 S Neil ST,CHAMPAIGN,IL,61820
1021,Great Steak & Potato Co.,2000 N Neil SPC 704,CHAMPAIGN,IL,61820
2342,Green House Homes @ Clark-Lindsey,2804 S Race ST,URBANA,IL,61802
1908,Green Jade,1109 W Windsor RD,CHAMPAIGN,IL,61821
2608,Green Onion Asian Market,2020 S Neil ST,CHAMPAIGN,IL,61820
1576,Green Street Cafe,35 E Green ST,CHAMPAIGN,IL,61820
2563,Grovestone,1707 W Kirby AVE,CHAMPAIGN,IL,61821
909,Guido's Bar & Grill,2 E Main ST,CHAMPAIGN,IL,61820
2498,Hamilton Walker's,201 N Neil ST,CHAMPAIGN,IL,61820
2490,Hammerhead Coffee,608 E University AVE STE 106,CHAMPAIGN,IL,61820
2246,Hampton Inn,1200 W University AVE,URBANA,IL,61801
151,Hand-In-Hand Daycare,104 E Vine ST,TOLONO,IL,61880
390,Hap Parker Family Aquatic Center,320 W Flessner,RANTOUL,IL,61866
680,Happi-Time Day Care,1010 Stratford DR,CHAMPAIGN,IL,61821
498,Happi-Time on Avondale,415 Avondale AVE,CHAMPAIGN,IL,61820
2636,Hardee's No. 1500093,326 S Century BLVD,RANTOUL,IL,61866
2635,Hardee's No. 1500267,1806 W Bradley AVE,CHAMPAIGN,IL,61821
2634,Hardee's No. 1501126,1703 S Neil ST,CHAMPAIGN,IL,61820
51,Hardy's Reindeer Ranch,1356 CR 2900N,RANTOUL,IL,61866
2396,Harvest Market No. 572 (Deli/Restaurant),2029 S Neil ST,CHAMPAIGN,IL,61820
2585,Harvest Market No. 572 (Demo/Up Bar/Coffee),2029 S Neil ST,CHAMPAIGN,IL,61820
2586,Harvest Market No. 572 (Groc/Mt/Sfd/Bak/Prod),2029 S Neil ST,CHAMPAIGN,IL,61820
2739,Haute Boxx (Commissary) @ Linden,224 Wheat AVE,RANTOUL,IL,61866
958,Hawthorn Suites Conference Center,101 Trade Centre DR,CHAMPAIGN,IL,61820
861,Hawthorn Suites Hotel,101 Trade Centre DR,CHAMPAIGN,IL,61820
2382,Haymaker's No. 715,202 Devonshire DR,CHAMPAIGN,IL,61820
679,Heartland Health Care Center,309 E Springfield,CHAMPAIGN,IL,61820
893,Helia Healthcare of Champaign,1915 S Mattis,CHAMPAIGN,IL,61821
1622,Helping Hands (Food Pantry),203 E Adams UNIT 2,MAHOMET,IL,61853
25,Hen House Family Restaurant,I-74 & Rt. 47,MAHOMET,IL,61853
779,Hendrick House,904 W Green ST,URBANA,IL,61801
2091,Hendrick House (Mobile),904 W Green ST,URBANA,IL,61801
2132,Hendrick House Catering,801 W Killarney,URBANA,IL,61801
1504,Heritage Elem./Jr. High School,512 W First ST,HOMER,IL,61849
1713,Heritage H.S. Concessions (Indoor),206 E Diller PO BOX 260,BROADLANDS,IL,61816
1503,Heritage High School,206 E Diller,BROADLANDS,IL,61816
633,Heritage Rehab & Health Care Center,Curt DR,CHAMPAIGN,IL,61821
1134,Hickory Farms No. 110803,2000 N Neil,CHAMPAIGN,IL,61820
980,Hickory River Smokehouse,1706 N Cunningham,URBANA,IL,61802
757,High School of St. Thomas More,3901 N Mattis,CHAMPAIGN,IL,61821
701,Hilton Garden/Great American Grill,1501 S Neil ST,CHAMPAIGN,IL,61820
2615,Himalayan Chimney,134 W Church ST,CHAMPAIGN,IL,61820
1520,Hissho Sushi @ Meijer,2401 N Prospect AVE,CHAMPAIGN,IL,61821
835,Hobbico Inc.,2904 Research RD,CHAMPAIGN,IL,61821
2509,Holiday Inn Express,1003 W Killarney ST,URBANA,IL,61801
2538,Holiday Inn Express & Suites,946 Broadmeadow RD,RANTOUL,IL,61866
1765,Hollywood Liquor,512 S Neil ST,CHAMPAIGN,IL,61820
2614,Holy Cross Preschool,404 W Clark ST,CHAMPAIGN,IL,61820
554,Holy Cross School,410 W White ST,CHAMPAIGN,IL,61820
2253,Home 2 Suites By Hilton,2013 S Neil ST,CHAMPAIGN,IL,61820
1849,Home of Gourmet Restaurant,604 E Daniel ST,CHAMPAIGN,IL,61820
2555,Home Town Pantry,4 E Holden ST STE A,TOLONO,IL,61880
972,Home Town Pantry,601 E Green ST,CHAMPAIGN,IL,61820
2203,Homer Country Market,103 S West ST,HOMER,IL,61849
1801,Homer United Methodist Church,301 S Main ST,HOMER,IL,61849
2385,Homer Vintage Bakery,111 S Main ST,HOMER,IL,61849
2607,Homestead,306 S Main ST PO BOX 251,GIFFORD,IL,61847
686,Homewood Suites by Hilton,1417 S Neil ST,CHAMPAIGN,IL,61820
2375,Honeybaked Ham & Cafe,2028 N Prospect AVE,CHAMPAIGN,IL,61820
451,Hooter's of Champaign,1706 S State ST,CHAMPAIGN,IL,61820
2417,Hopscotch @ Art Mart,1705 S Prospect AVE,CHAMPAIGN,IL,61820
2620,Hopscotch Bakery,802 W John ST,CHAMPAIGN,IL,61820
2377,Hot Spot,1809 S Philo RD STE B,URBANA,IL,61801
2378,Hot Spot,1903 N Neil ST STE B,CHAMPAIGN,IL,61820
1867,Hot Wok Express,1102 W University AVE,URBANA,IL,61801
1222,Houlihan's,1902 S First ST,CHAMPAIGN,IL,61820
1764,Huaraches Moroleon,805 S Philo RD,URBANA,IL,61801
2391,Hub Sports Bar,601 S First ST STE 102,CHAMPAIGN,IL,61820
651,Huber's West End Store,1312 W Church ST,CHAMPAIGN,IL,61821
22,Hugs & Bugs,127 W Washington,PHILO,IL,61864
2632,HuHot Mongolian Grill,902 Meijer DR STE 3,CHAMPAIGN,IL,61822
677,"Human Kinetics Publishers, Inc.",1607 N Market,CHAMPAIGN,IL,61820
2061,Hyatt Place,217 N Neil ST,CHAMPAIGN,IL,61820
2519,Hybrid Fit Foods,412 E University AVE STE 101,CHAMPAIGN,IL,61820
1318,I Cafe,1900 S First ST,CHAMPAIGN,IL,61820
1705,I Wok,113 Calvin DR,SAVOY,IL,61874
2290,Ice Daddy's (Mobile) @ Filippo's CO,2012-A Tin Cup RD,MAHOMET,IL,61853
2667,Ice Daddy's (Mobile) @ Filippo's CU,2012-A Tin Cup RD,MAHOMET,IL,61853
1327,Illini Tower,409 E Chalmers,CHAMPAIGN,IL,61820
77,Ingold's Grocery,"101 S Third, P.O. Box 189",FISHER,IL,61843
1700,Inman Place,17 E University AVE,CHAMPAIGN,IL,61820
1106,Insomnia Cookies,502 E John ST,CHAMPAIGN,IL,61820
591,International Prep Academy,1605 W Kirby,CHAMPAIGN,IL,61821
966,Iron Post,120 S Race,URBANA,IL,61801
2324,It'll Do Mahomet,215 S Lake of the Woods RD,MAHOMET,IL,61853
485,It's Brothers Bar & Grill,613 E Green ST,CHAMPAIGN,IL,61820
284,Ivesdale Tavern Inc.,"203 Chapin, Box 47",IVESDALE,IL,61851
2381,J & B Snack Shack (Commissary) @ Marble's,104 W Tomaras,SAVOY,IL,61874
2521,J & B Snack Shack (Mobile) @ Marble's,104 W Tomaras AVE,SAVOY,IL,61874
643,J & D Moore (Mobile),2013 N 1950E RD,Watseka,IL,60970
1787,J. Gumbo's,700 S Gregory DR STE D,URBANA,IL,61801
2367,J6 Food Mart,516 E John ST,CHAMPAIGN,IL,61820
2192,Jack Flash,303 E Warren,ST. JOSEPH,IL,61873
138,Jack's Tavern,"106 E Main St., P.O. Box 462",TOLONO,IL,61880
1310,Jamba Juice @ Illini Union,1401 W Green ST,URBANA,IL,61801
2511,Jarling's Custard Cup,309 W Kirby AVE,CHAMPAIGN,IL,61820
1565,Jefferson Middle School (Summer Food),1115 Crescent DR,CHAMPAIGN,IL,61821
1666,Jefferson Middle School Concessions,1115 S Crescent,CHAMPAIGN,IL,61821
588,Jefferson Middle School/Indoor Concession,1115 S Crescent,CHAMPAIGN,IL,61821
551,Jenny Craig Weight Loss Ctr. No. 3401,907 W Marketview DR STE 13,CHAMPAIGN,IL,61822
979,Jerusalem Restaurant,601 S Wright,CHAMPAIGN,IL,61820
2169,Jet's Pizza,1907 W Springfield AVE,CHAMPAIGN,IL,61820
1779,Jet's Pizza,512 S Neil ST,CHAMPAIGN,IL,61820
2394,Jim's Place,403 W Kirby AVE,CHAMPAIGN,IL,61820
1585,Jimmy John's,102 E University AVE UNIT A,URBANA,IL,61801
435,Jimmy John's,1511 N Prospect,CHAMPAIGN,IL,61821
1854,Jimmy John's,1801 W Springfield AVE,CHAMPAIGN,IL,61821
615,Jimmy John's,1811 W Kirby,CHAMPAIGN,IL,61820
1081,Jimmy John's,601 E Green ST UNIT B,CHAMPAIGN,IL,61820
2675,Jimmy John's,710 W Champaign AVE,RANTOUL,IL,61866
844,Jimmy John's,807 S Lincoln,URBANA,IL,61801
770,Jimmy John's & Training Kitchen,43 E Green ST,CHAMPAIGN,IL,61820
2557,Jip Bap,601 S Sixth ST STE 101,CHAMPAIGN,IL,61820
918,Joe's Brewery,706 S Fifth ST,CHAMPAIGN,IL,61820
2565,Joobie's,48 E Springfield AVE,CHAMPAIGN,IL,61820
2044,JT Walker's Brewery,402 E Main ST,MAHOMET,IL,61853
1226,JT Walker's/Barrel Room Restaurant & Sports Bar,401 E Main ST PO BOX 146,MAHOMET,IL,61853
2427,Juanito's Tacos (Mobile) @ El Oasis,510 N Cunningham,URBANA,IL,61802
1670,Judah Christian School Concessions,908 N Prospect AVE,CHAMPAIGN,IL,61820
696,Jupiter's,39 E Main ST,CHAMPAIGN,IL,61820
1070,Jupiter's at the Crossing,2511 Village Green PL,CHAMPAIGN,IL,61822
2120,Jurassic Grill,404 E Green ST,CHAMPAIGN,IL,61820
1903,K-Bowl,39 E Green ST,CHAMPAIGN,IL,61820
2206,Kaffee Mahomet @ Mahomet IGA,202 Eastwood DR,MAHOMET,IL,61853
580,Kam's,618 E Daniel,CHAMPAIGN,IL,61820
2473,Kappa Alpha Theta Sorority,611 E Daniel ST,CHAMPAIGN,IL,61820
2489,Kappa Delta Sorority,1204 S Lincoln AVE,URBANA,IL,61801
2481,Kappa Kappa Gamma Sorority,1102 S Lincoln AVE,URBANA,IL,61801
1162,Kato's Cajun,2000 N Neil ST UNIT 716,CHAMPAIGN,IL,61820
957,Kenwood School,1001 S Stratford,CHAMPAIGN,IL,61820
971,KFC,2201 W Springfield AVE,CHAMPAIGN,IL,61821
955,KFC,410 W University AVE,URBANA,IL,61801
197,KFC/A&W,1321 N Dunlap AVE,SAVOY,IL,61874
694,Kids 1st Child Care,4109 Colleen DR,CHAMPAIGN,IL,61822
517,Kinder Care Learning Center,410 Devonshire,CHAMPAIGN,IL,61820
960,King School,1108 W Fairview,URBANA,IL,61801
2594,Klean Kafe,207 W Washington ST,PHILO,IL,61864
1662,Knights Inn,612 Killarney,URBANA,IL,61801
238,Knights of Columbus,1001 W Ohio,RANTOUL,IL,61866
1117,Ko Fusion,"1 E Main St., Box 429",CHAMPAIGN,IL,61820
2060,Ko Fusion,701 S Gregory DR STE F,URBANA,IL,61801
2591,Kohinoor Indian Restaurant,6 E Columbia AVE,CHAMPAIGN,IL,61820
2613,Kona Ice of Champaign (Commissary),108 Jones DR,SAVOY,IL,61874
2123,Kona Ice of Champaign No. 1 (Mobile) - CU,108 Jones DR,SAVOY,IL,61874
2266,Kona Ice of Champaign No. 2 (Mobile) - CU,108 Jones DR,SAVOY,IL,61874
2301,Kona Ice of Champaign No. 2 (Mobile) @ Marble's (CO),104 W Tomaras AVE,SAVOY,IL,61874
2306,Krispy Krunchy Chicken,922 W Bradley AVE,CHAMPAIGN,IL,61821
2567,KungFu BBQ,510 E John ST,CHAMPAIGN,IL,61820
2536,Kyoto Sushi,611 E Green ST,CHAMPAIGN,IL,61820
315,L. A. Gourmet Catering,2607 CR 1000E,CHAMPAIGN,IL,61822
929,La Bamba,1905 Glenn Park DR,CHAMPAIGN,IL,61821
1256,La Luna Cafe,208 N Main ST,ST. JOSEPH,IL,61873
1963,La Morenita Mexican Store,607 N Cunningham AVE,URBANA,IL,61802
601,La Petite Academy,1713 Broadmoor,CHAMPAIGN,IL,61821
725,La Quinta Inn No. 553,1900 Center DR,CHAMPAIGN,IL,61820
2361,Lacey's Place,110 E University AVE STE C,URBANA,IL,61801
2358,Lacey's Place,1710 W Bradley AVE,CHAMPAIGN,IL,61820
2357,Lacey's Place,1724 W Bradley AVE,CHAMPAIGN,IL,61820
2360,Lacey's Place,1903 N Neil ST STE C,CHAMPAIGN,IL,61820
2359,Lacey's Place,2508 Village Green PL STE B,CHAMPAIGN,IL,61822
1936,Lai Lai Wok,402 E Green ST STE A,CHAMPAIGN,IL,61820
1994,Lake House @ Crystal Lake Park,206 W Park ST,URBANA,IL,61801
2071,Lake of the Woods Bar & Liquors,204 S Prairieview RD,MAHOMET,IL,61853
31,Lake of the Woods Golf Course,405 N Lake of the Woods RD,MAHOMET,IL,61853
2734,Lambda Chi Alpha,209 E Armory AVE,CHAMPAIGN,IL,61820
2579,Lao Sze Chuan Chinese Restaurant & Bar,608 E University AVE STE 105,CHAMPAIGN,IL,61820
184,Last Call for Alcohol,"105 N Main, P.O. Box 143",PENFIELD,IL,61862
2350,Latea Lounge,601 S Sixth ST STE 105,CHAMPAIGN,IL,61820
900,Leal School,312 W Oregon,URBANA,IL,61801
454,Legends,522 E Green,CHAMPAIGN,IL,61820
1218,Legends of Champaign,4551 Nicklaus DR,CHAMPAIGN,IL,61821
2668,Lenny's Ice Cream Gallery,308 S Main ST,GIFFORD,IL,61847
1571,Leonhard Recreation Center (Summer Food),2212 W Sangamon DR,CHAMPAIGN,IL,61821
2530,Libby's Lounge,905 S Neil ST UNIT A,CHAMPAIGN,IL,61820
751,Lil Porgy's BBQ,101 W University,URBANA,IL,61801
618,Lil Porgy's BBQ,1917 W Springfield AVE,CHAMPAIGN,IL,61821
232,Lincoln Challenge/Challenge Unlimited,205 Dodge AVE,RANTOUL,IL,61866
312,Lincoln Street Lounge,"112 S Lincoln, P.O. Box 290",BROADLANDS,IL,61816
73,Lincoln Trail Elementary,102 E State ST,MAHOMET,IL,61853
1707,Lincolnshire Fields (Pool House),2000 Byrnebruk DR,CHAMPAIGN,IL,61822
311,Lincolnshire Fields Country Club,2000 Byrneburk DR,CHAMPAIGN,IL,61821
318,Linden Banquet Center,224 W Wheat AVE,RANTOUL,IL,61866
2748,Lindquist Heritage Cheesecakes (Mobile Freezer) @ Marble's,104 W Tomaras AVE,SAVOY,IL,61874
2595,Lindy Lu's Place,202 W University AVE,URBANA,IL,61801
2115,Liquor Locker,820 E Champaign AVE,RANTOUL,IL,61866
1034,Little Caesar's Pizza,1211 S Mattis AVE,CHAMPAIGN,IL,61821
2148,Little Caesar's Pizza,703 S Neil ST STE A,CHAMPAIGN,IL,61820
1072,Little Hearts & Hands Inc.,2501 S Myra Ridge DR,URBANA,IL,61802
192,Little Wings Child Care,205 E Frost,RANTOUL,IL,61866
703,Long John Silver's,1217 N Prospect,CHAMPAIGN,IL,61821
2364,Longbranch Steakhouse,310 S Main ST PO BOX 331,GIFFORD,IL,61847
1663,Longhorn Steakhouse,2101 N Prospect AVE,CHAMPAIGN,IL,61822
2168,Loose Cobra,113 E Main ST PO BOX 851,TOLONO,IL,61880
1531,Los Zarapes,804 Eastwood DR UNIT 15,MAHOMET,IL,61853
2084,Lu & Denny's,105 N Long,TOLONO,IL,61880
2624,Lucky Diamond,920 W Bradley AVE,CHAMPAIGN,IL,61821
2645,Lucky Moon Pies & More,401 E Oak ST,MAHOMET,IL,61853
2702,Lucky Pierre Bakers @ Cracked Commissary,1205 N Harris AVE,CHAMPAIGN,IL,61820
2492,Lucky Star,2108 E University AVE,URBANA,IL,61802
74,Ludlow Grade School,245 S Orange ST,LUDLOW,IL,60949
2322,Ludlow United Methodist Church (Food Pantry),314 W Thomas PO BOX 185,LUDLOW,IL,60949
1802,Mach 1 Food Shop,902 W Bloomington RD,CHAMPAIGN,IL,61820
2085,Mahomet Family Restaurant,1002 Commercial DR,MAHOMET,IL,61853
1481,Mahomet IGA (Deli/Bakery),202 Eastwood DR,MAHOMET,IL,61853
1482,Mahomet IGA (Groc/Mt/Sfd/Prod),202 Eastwood DR,MAHOMET,IL,61853
105,Mahomet-Seymour H.S. & Indoor Concession,302 W State ST,MAHOMET,IL,61853
2277,Mahomet-Seymour H.S. Baseball Concessions,302 W State ST,MAHOMET,IL,61853
1748,Mahomet-Seymour H.S. Concessions (Outdoor Footb/Track),302 W State ST,MAHOMET,IL,61853
1749,Mahomet-Seymour H.S. Soccer Field @ Middletown,101 N Division ST,MAHOMET,IL,61853
104,Mahomet-Seymour Jr. High,201 W State ST,MAHOMET,IL,61853
1712,Mahomet-Seymour Jr. High Concesssions (Indoor),201 W State ST PO BOX 560,MAHOMET,IL,61853
2193,Main Street Belly Deli,118 S Main ST,HOMER,IL,61849
2027,Maize,100 N Chestnut UNIT 1,CHAMPAIGN,IL,61820
1741,Maize Mexican Grill,60 E Green ST,CHAMPAIGN,IL,61820
564,Maligaya's Store,2410 W Springfield AVE,CHAMPAIGN,IL,61821
1679,Mamma D's Smokehouse & Catering,430 Maple ST PO BOX 102,Weldon,IL,61735
1095,Mandarin Wok,403 1/2 E. Green ST,CHAMPAIGN,IL,61820
2531,Mango Mango Creamery,2000 N Neil ST UNIT 714,CHAMPAIGN,IL,61820
1205,Manolo's Pizza & Empanadas,1115 W Oregon,URBANA,IL,61801
793,Manzella's Italian Patio,115 S First,CHAMPAIGN,IL,61820
2145,Marathon Gas Station,872 CR 1000N RD,CHAMPAIGN,IL,61822
161,Marble Slab Creamery,1211 Savoy Plaza LN,SAVOY,IL,61874
1933,Marble's Catering/Rental Kitchen,104 W Tomaras ST,SAVOY,IL,61874
2533,Marco's Pizza,1901 S Philo RD,URBANA,IL,61802
2664,Mas Amigos (Commissary) @ Cracked Commissary,1205 N Harris AVE,CHAMPAIGN,IL,61820
2660,Mas Amigos (Mobile) @ Cracked Commissary,1205 N Harris AVE,CHAMPAIGN,IL,61820
2020,Masijta Grill,202 N Race ST,URBANA,IL,61801
2653,McAlister's Deli,421 Town Center BLVD,CHAMPAIGN,IL,61820
55,McDonald's,1006 S Purnell DR,MAHOMET,IL,61853
545,McDonald's,1605 S Neil ST,CHAMPAIGN,IL,61820
1290,McDonald's,1705 S Philo RD,URBANA,IL,61802
602,McDonald's,1812 N Neil ST,CHAMPAIGN,IL,61820
1811,McDonald's,2909 W Kirby AVE,CHAMPAIGN,IL,61821
419,McDonald's,501 N Mattis,CHAMPAIGN,IL,61821
550,McDonald's,601 N Cunningham,URBANA,IL,61801
2078,McDonald's,616 E Green Street,CHAMPAIGN,IL,61820
1291,McDonald's,711 W Champaign,RANTOUL,IL,61866
1837,McDonald's,906 Bloomington RD,CHAMPAIGN,IL,61820
183,McDonald's @ Road Ranger,4910 N Market ST,CHAMPAIGN,IL,61822
1759,Meatheads,1305 S Neil ST,CHAMPAIGN,IL,61820
921,Meijer No. 146 (Deli),2401 N Prospect,CHAMPAIGN,IL,61822
905,Meijer No. 146 (Gas Station),2401 N Prospect,CHAMPAIGN,IL,61821
882,Meijer No. 146 (Groc/Bak),2401 N Prospect,CHAMPAIGN,IL,61821
911,Meijer No. 146 (Prod/Mt/Sfd),2401 N Prospect,CHAMPAIGN,IL,61821
1758,Meijer No. 247 (Deli),2500 S Philo RD,URBANA,IL,61802
1051,Meijer No. 247 (Gas Station),2602 S Philo RD,URBANA,IL,61802
1172,Meijer No. 247 (Groc/Bak),2500 S Philo RD,URBANA,IL,61802
1321,Meijer No. 247 (Prod/Mt/Sfd),2500 S Philo RD,URBANA,IL,61802
2267,Memphis on Main,55 E Main ST,CHAMPAIGN,IL,61820
2698,Men's Transitional Housing Program,70 E Washington ST,CHAMPAIGN,IL,61820
583,Menard's,620 Town Center BLVD,CHAMPAIGN,IL,61820
1533,Merry Ann's Diner,701 S Gregory ST,URBANA,IL,61801
607,Merry-Ann's Diner,1510 S Neil,CHAMPAIGN,IL,61820
1079,Merry-Ann's Diner on Main,1 E Main ST,CHAMPAIGN,IL,61820
2527,Mi Rasa,128 E Sangamon AVE,RANTOUL,IL,61866
1746,Mia Za's,629 E Green ST,CHAMPAIGN,IL,61820
831,Michaels' Catering LLC,720 S Neil ST,CHAMPAIGN,IL,61820
2130,Microtel Inn,1615 Rion DR,CHAMPAIGN,IL,61822
2619,Mid-America Market,1005 S Purnell DR,MAHOMET,IL,61853
2419,Mid-Summer Lounge,623 E Green ST,CHAMPAIGN,IL,61820
2627,Middle Fork Forest Preserve Campstore,3485 CR 2700E,PENFIELD,IL,61862
2051,Middletown-Prairie Elementary School,1301 S Bulldog DR,MAHOMET,IL,61853
2048,Miga Restaurant,301 N Neil ST STE 104,CHAMPAIGN,IL,61820
1220,Milo's,2870 S Philo RD,URBANA,IL,61802
1527,Ming Garden,1804 Sangamon DR,CHAMPAIGN,IL,61821
2526,Minit Mart No. 798,203 N Lombard ST,MAHOMET,IL,61853
638,Mirabelle Fine Pastries,124 W Main,URBANA,IL,61801
1397,Mirsung Groceries,49 E Green ST UNIT A,CHAMPAIGN,IL,61820
2659,Mo's Burrito (Mobile) @ Cracked Commissary,1205 N Harris AVE,CHAMPAIGN,IL,61820
2232,Moe's Southwest Grill,2041 S Neil ST,CHAMPAIGN,IL,61820
304,Monical's Pizza,102 W Vine ST,TOLONO,IL,61880
97,Monical's Pizza,114 S Lombard,MAHOMET,IL,61853
986,Monical's Pizza,205 N Mattis,CHAMPAIGN,IL,61821
1179,Monical's Pizza,2720 S Philo RD,URBANA,IL,61802
37,Monical's Pizza,320 E Champaign AVE,RANTOUL,IL,61866
1180,Monical's Pizza,703 N Third ST,ST. JOSEPH,IL,61873
2646,Monoloco,612 E Daniel ST,CHAMPAIGN,IL,61820
156,Montessori School,1403 Regency DR,SAVOY,IL,61874
1905,Mr. Gas Plus,808 E Main ST,URBANA,IL,61802
2328,Mt. Olive Miss. Baptist Church (Summer Food),808 S Bradley AVE,CHAMPAIGN,IL,61820
1423,Multicultural Center Inc.,1126 Country Club LN,RANTOUL,IL,61866
477,Murphy's Pub,604 E Green,CHAMPAIGN,IL,61820
1575,My Thai,2312 W Springfield AVE,CHAMPAIGN,IL,61822
2284,Nando Milano Trattoria,202 N Neil ST,CHAMPAIGN,IL,61820
848,Natural Gourmet,"2225 S Neil St., Ste. G",CHAMPAIGN,IL,61820
1422,Neighbors @ the Ice House,703 N Prospect AVE,CHAMPAIGN,IL,61820
2072,Neil St. Food & Liquor,701 N Neil ST,CHAMPAIGN,IL,61820
2247,Nelson's Catering @ Wyndham,1001 W Killarney ST,URBANA,IL,61801
1624,New Life Fellowship (Food Pantry),1211 E Kerr,URBANA,IL,61801
1159,Newman Hall by Hendrick House,604 E Armory AVE,CHAMPAIGN,IL,61820
1995,Newman Shares (Food Pantry),604 E Armory DR,CHAMPAIGN,IL,61820
683,Next Generation,1201 W Windsor RD,CHAMPAIGN,IL,61821
2161,Next Generation School,2508 Galen DR,CHAMPAIGN,IL,61821
2369,Nika House,112 E John ST UNIT 101,CHAMPAIGN,IL,61820
514,Niro's Gyros,1007 W University AVE,URBANA,IL,61801
2118,Niro's Gyros,2001 W Springfield AVE,CHAMPAIGN,IL,61821
2588,Nitro Cup Coffee @ Marble's,104 W Tomaras AVE,SAVOY,IL,61874
781,Noodles & Company,528 E Green ST UNIT 102,CHAMPAIGN,IL,61820
2170,North Forty,301 S Main ST PO BOX 432,GIFFORD,IL,61847
115,Northview Elem. School,400 N Sheldon ST,RANTOUL,IL,61866
1935,Novak Academy,815 N Randolph ST,CHAMPAIGN,IL,61820
824,O'Charley's,730 W Town Center BLVD,CHAMPAIGN,IL,61822
173,Oberweis Dairy Trk. 1,"1103 N M.L. King Dr., 3B",Bloomington,IL,61701
997,Oberweis Dairy Trk. 1,"1103 N Martin Luther King, 3B",Bloomington,IL,61701
1924,Office II,302 S Country Fair DR,CHAMPAIGN,IL,61821
1634,Ogden Council of Churches @ OUMC (Food Pantry),105 W Main ST PO BOX 37,OGDEN,IL,61859
1587,Oishi,2501 N Prospect AVE,CHAMPAIGN,IL,61822
1416,Old Chicago Pasta & Pizza,1910 N Neil ST,CHAMPAIGN,IL,61820
189,Old Orchard Lanes,901 N Dunlap,SAVOY,IL,61874
155,Old Orchard Links,907 N Dunlap,SAVOY,IL,61874
667,Old Time Meat & Deli Shoppe,2018 S Neil ST,CHAMPAIGN,IL,61820
443,Olive Garden No. 1176,30 E Anthony DR,CHAMPAIGN,IL,61820
690,Original Pancake House,1909 W Springfield AVE STE A,CHAMPAIGN,IL,61821
2545,Ott's Drive-In,400 N Century BLVD,RANTOUL,IL,61866
961,Outback Steakhouse,2402 N Prospect AVE,CHAMPAIGN,IL,61821
2552,Ozu Ramen,601 S Sixth ST STE 102,CHAMPAIGN,IL,61820
320,Padano's Pizza Co.,"209 N Main, P.O. Box 282",ST. JOSEPH,IL,61873
1646,Panchero's Mexican Grill,102 E University AVE STE B,URBANA,IL,61801
2304,Panchero's Mexican Grill,2009 S Neil ST,CHAMPAIGN,IL,61821
1239,Panda Express,2521 N Prospect AVE,CHAMPAIGN,IL,61821
2043,Panda Express,627 S Wright ST,CHAMPAIGN,IL,61820
2610,Panda Express No. 2836,106 E University AVE,URBANA,IL,61801
642,Panda Express No. 491,2000 N Neil,CHAMPAIGN,IL,61820
2697,Pandamonium Doughnuts,1105 W Windsor RD,CHAMPAIGN,IL,61821
2116,Pandamonium Doughnuts (Booth),1105 W Windsor RD,CHAMPAIGN,IL,61821
2204,Pandamonium Doughnuts (Mobile),1105 W Windsor RD,CHAMPAIGN,IL,61821
1358,Panera Bread,616 E Green ST,CHAMPAIGN,IL,61820
1186,Panera Bread No. 1291,1765 W Kirby,CHAMPAIGN,IL,61821
1187,Panera Bread No. 1297,1903 Convenience PL,CHAMPAIGN,IL,61820
2318,Papa Del's Pizza Factory,1201 S Neil ST,CHAMPAIGN,IL,61820
1583,Papa John's Pizza,225 E Congress AVE,RANTOUL,IL,61866
1918,Papa John's Pizza No. 1186,2104 W Springfield AVE,CHAMPAIGN,IL,61821
1917,Papa John's Pizza No. 3603,1307 E Florida AVE,URBANA,IL,61801
1916,Papa John's Pizza No. 74,106 E Green ST,CHAMPAIGN,IL,61820
370,Papa John's Trailer No. 1 (County),1307 E Florida AVE,URBANA,IL,61801
1227,Papa John's Trailer No. 1 (Mobile) CU,1307 E Florida AVE,URBANA,IL,61801
1007,Papa Murphy's,"114 N Vine St., Ste. C",URBANA,IL,61801
1114,Papa Murphy's,1753 W Kirby,CHAMPAIGN,IL,61821
2711,Paris Super Crepes,601 S Sixth ST STE 106,CHAMPAIGN,IL,61820
2556,Parkland Child Development (Summer Food),2400 W Bradley AVE BLDG G,CHAMPAIGN,IL,61821
914,Parkland Child Development Ctr.,2400 W Bradley AVE BLDG G,CHAMPAIGN,IL,61821
1884,Parkland College Gym Concessions,2400 W Bradley AVE,CHAMPAIGN,IL,61821
866,Pavilion,809 W Church ST,CHAMPAIGN,IL,61820
682,Pavilion Foundation School,810 W Church ST,CHAMPAIGN,IL,61820
211,Peace Meal,221 S David,SIDNEY,IL,61877
215,Peace Meal,500 E Second,HOMER,IL,61849
301,Peace Meal,520 E Wabash AVE,RANTOUL,IL,61866
2500,Pearl's,1306 N Prospect AVE,CHAMPAIGN,IL,61820
2414,Pekara Bakery & Bistro,116 N Neil ST,CHAMPAIGN,IL,61820
1105,Peking Garden,206 N Randolph,CHAMPAIGN,IL,61820
6,Peking House,806 Eastwood DR,MAHOMET,IL,61853
1091,Penn Station - East Coast Subs,908 W Town Center,CHAMPAIGN,IL,61822
1046,Penn Station East Coast Subs,605 S Sixth ST,CHAMPAIGN,IL,61820
759,Perkin's Restaurant  & Bakery No. 1202,1214 W University,URBANA,IL,61801
1677,Peter Pan Too Learning Center,1305 S Mattis AVE,CHAMPAIGN,IL,61821
2445,Phi Delta Theta Fraternity,309 E Chalmers ST,CHAMPAIGN,IL,61820
2454,Phi Kappa Psi Fraternity,911 S Fourth ST,CHAMPAIGN,IL,61820
2618,Phi Kappa Tau Fraternity,310 E Gregory,CHAMPAIGN,IL,61820
2742,Phi Mu Sorority,1108 S First ST,CHAMPAIGN,IL,61820
2465,Phi Sigma Kappa Fraternity,1004 S Second ST,CHAMPAIGN,IL,61820
2483,Phi Sigma Sigma Sorority,902 S Second ST,CHAMPAIGN,IL,61820
2332,Phillips Recreation Center (Summer Food),505 W Stoughton,URBANA,IL,61801
1645,Philo Gas & Car Wash,102 S Lincoln ST,PHILO,IL,61864
33,Philo Tavern,101-1/2 W Washington ST PO BOX 528,PHILO,IL,61864
2095,Pho Cafe,611 E Green ST STE B,CHAMPAIGN,IL,61820
2476,Pi Beta Phi Sorority,1005 S Wright ST,CHAMPAIGN,IL,61820
2462,Pi Kappa Phi Fraternity,306 E Gregory DR,CHAMPAIGN,IL,61820
438,Pia's Sports Bar & Grill,1609 W Springfield,CHAMPAIGN,IL,61821
433,Piato Cafe & Catering,201 Lincoln Square,URBANA,IL,61801
2108,Piato To Go (Mobile),300 S Broadway UNIT FC-2,URBANA,IL,61801
2230,Piccadilly Beverage Shop,2202 W John ST,CHAMPAIGN,IL,61821
2623,Pie's the Limit,2510 Village Green PL,CHAMPAIGN,IL,61822
894,Pipa's Pub,604 S Country Fair DR,CHAMPAIGN,IL,61821
990,Pizza Hut No. 2619,409 N Mattis AVE,CHAMPAIGN,IL,61821
803,Pizza Hut No. 2620,411 E Green ST,CHAMPAIGN,IL,61820
171,Pizza Hut No. 2733,2020 Lon DR,RANTOUL,IL,61866
1859,Pizza Hut No. 2735,1317 Savoy Plaza LN,SAVOY,IL,61874
1967,Pizza M,208 W Main ST,URBANA,IL,61801
2112,Pizza Roma,106 W Division ST PO BOX 387,FISHER,IL,61843
2251,Pizzeria Antica,10 E Chester ST,CHAMPAIGN,IL,61820
118,Pleasant Acres Elem. School,1625 Short ST,RANTOUL,IL,61866
1728,Po' Boys,202 E University AVE STE C,URBANA,IL,61801
2260,Pop Stop Commissary @ Cracked Commissary,1205 N Harris ST,CHAMPAIGN,IL,61820
150,Pop's Place,"104 E Thomas, P.O. Box 202",LUDLOW,IL,60949
2600,Popalicious Gourmet Popcorn,202 E University AVE STE E,URBANA,IL,61801
2002,Popeye's Louisiana Kitchen,910 W Bloomington RD,CHAMPAIGN,IL,61821
2554,Portillo's Hot Dogs,2306 N Prospect AVE,CHAMPAIGN,IL,61822
1097,Potbelly Sandwich Works,501 E Green ST,CHAMPAIGN,IL,61820
743,Prairie Center,122 W Hill ST,CHAMPAIGN,IL,61820
1263,Prairie Fruits Farm,4410 N Lincoln AVE,CHAMPAIGN,IL,61822
1128,Prairie Fruits Farm (Booth),4410 N Lincoln AVE,CHAMPAIGN,IL,61822
735,Prairie Winds of Urbana,1905 Prairie Winds Drive,URBANA,IL,61802
185,Prairieview-Ogden Jr. High,2499 CR 2100E ST,THOMASBORO,IL,61878
186,Prairieview-Ogden North Elementary,106 N Vine ST,ROYAL,IL,61871
182,Prairieview-Ogden So. Elementary,304 N Market ST,Odgen,IL,61859
2520,PrepFreezeCook,2502 Village Green PL,CHAMPAIGN,IL,61822
1377,Presby Hall by A Pinch of This Catering,809 S Fifth ST,CHAMPAIGN,IL,61820
729,Presence Covenant Medical Center,1400 W Park ST,URBANA,IL,61801
123,Prince of Peace Community Early Learning Ctr.,802 E Douglas,ST. JOSEPH,IL,61873
2661,Project 47 Smokehouse,101 S Lombard ST,MAHOMET,IL,61853
2658,Prospect Mini Mart,1406 N Prospect AVE,CHAMPAIGN,IL,61820
2470,Psi Upsilon Fraternity,313 E Armory AVE,CHAMPAIGN,IL,61820
2129,Qdoba Mexican Grill @ Illini Union,1401 W Green ST,URBANA,IL,61801
1374,Quality,110 N Neil ST,CHAMPAIGN,IL,61820
1881,Quality Inn & Suites,305 Marketview DR,CHAMPAIGN,IL,61821
206,Quarters Inn & Suites,200 Linden AVE,RANTOUL,IL,61866
466,Quencher Smoothies,2000 N Neil ST,CHAMPAIGN,IL,61820
1030,Quick Shop,1511 E Washington,URBANA,IL,61802
518,R.E.A.D.Y. Program,45 E University,CHAMPAIGN,IL,61820
530,Radio Maria,119 N Walnut,CHAMPAIGN,IL,61821
944,Rainbow Garden,1402 S Neil ST,CHAMPAIGN,IL,61820
1655,Rainbow Garden,202 E University AVE,URBANA,IL,61801
884,Ramada Ltd.,902 W Killarney ST,URBANA,IL,61801
204,Rantoul Food Mart,515 S Maplewood DR,RANTOUL,IL,61866
1726,Rantoul H.S. Concessions (Indoor),200 S Sheldon ST,RANTOUL,IL,61866
382,Rantoul H.S. Concessions (Outdoor),200 S Sheldon,RANTOUL,IL,61866
139,Rantoul Head Start,104 Nightengale CT,RANTOUL,IL,61866
1437,Rantoul Pub,114 E Congress,RANTOUL,IL,61866
2255,Rantoul Public House,108 N Garrard ST,RANTOUL,IL,61866
234,Rantoul Super 8,207 S Murray RD,RANTOUL,IL,61866
48,Rantoul Township High School,200 S Sheldon,RANTOUL,IL,61866
2330,Rantoul Twp. High School (Summer Food),200 S Sheldon ST,RANTOUL,IL,61866
2278,Rantoul VFW Post 6750,673 N Ohio ST,RANTOUL,IL,61866
2693,Red Bicycle Ice Cream,2740 S Philo RD STE D,URBANA,IL,61802
2142,Red Cape Hot Pot,112 E Green ST STE A,CHAMPAIGN,IL,61820
2038,Red Fox,2000 N Market ST,CHAMPAIGN,IL,61820
860,Red Herring Restaurant,1209 W Oregon,URBANA,IL,61801
502,Red Lion,211 E Green ST,CHAMPAIGN,IL,61820
2582,Red Lion (Mobile Bar),211 E Green ST,CHAMPAIGN,IL,61820
648,Red Lobster No. 6226,1901 N Prospect,CHAMPAIGN,IL,61821
2401,Red Robin,2010 N Neil ST,CHAMPAIGN,IL,61820
45,Red Wheel Restaurant,741 Broadmeadow RD,RANTOUL,IL,61866
913,Refinery (Downstairs Jc Bar & Kit/Recept Bar),2302 W John ST,CHAMPAIGN,IL,61821
2109,Reflections Memory Care,62 E Airport RD,SAVOY,IL,61874
2137,Regal Chocolates @ Marble's,104 W Tomaras AVE,SAVOY,IL,61874
1951,Residence Inn by Marriott,502 W Marketview DR,CHAMPAIGN,IL,61822
1525,Restoration Urban Ministries (Food Pantry),1213 Parkland CT PO BOX 3277,CHAMPAIGN,IL,61821
654,Ribeye of Champaign,1701 S Neil ST,CHAMPAIGN,IL,61820
2407,Rich's Family Restaurant,305 W Ellen ST,OGDEN,IL,61859
1795,Rick's Bakery Cafe,2018 S Philo RD,URBANA,IL,61802
2421,Riggs Beer Company,1901 S High Cross RD,URBANA,IL,61802
2656,Right Hand (Food Pantry),1281 Eater DR PO BOX 5495,RANTOUL,IL,61866
350,Road Ranger No. 132,4910 N Market,CHAMPAIGN,IL,61821
487,Robeson School,2501 Southmoor DR,CHAMPAIGN,IL,61820
1897,Roch's,101 N Main ST PO BOX 875,ST. JOSEPH,IL,61873
2501,Rosati's Concessions & Catering (Booth),701 S Gregory STE H,URBANA,IL,61801
1010,Rosati's Pizza,701 S Gregory,URBANA,IL,61801
422,"Rosebowl Tavern, Ltd.",106 N Race,URBANA,IL,61801
1651,Round Barn Banquet Center,1900 Round Barn RD,CHAMPAIGN,IL,61821
1607,Route 45 Wayside,101 S Chestnut,PESOTUM,IL,61863
43,Rube's Country Cooking (Mobile),207 Florida RD PO BOX 457,GIFFORD,IL,61847
2217,Rube's Country Cooking Commissary,207 Florida DR PO BOX 457,GIFFORD,IL,61847
2298,Ruby's IV,510 N Cunningham AVE STE 12,URBANA,IL,61801
2297,Ruby's V,515 Town Center BLVD,CHAMPAIGN,IL,61821
2288,Ruhter Bison,3404 Memory LN,URBANA,IL,61802
2029,Ruler Foods,2002 W Springfield AVE,CHAMPAIGN,IL,61821
1904,Ruler Foods,716 W Town Center BLVD,CHAMPAIGN,IL,61822
2673,S & S Foods,310 Tiffany CT STE E,CHAMPAIGN,IL,61822
2174,Sadorus Food Pantry @ Village Hall,115 E Market ST PO BOX 198,SADORUS,IL,61872
2014,Sakanaya Restaurant,403 E Green ST,CHAMPAIGN,IL,61820
2566,Salad Meister,601 S Sixth ST STE 104,CHAMPAIGN,IL,61820
1496,Salt & Light (Food Pantry),1512 W Anthony DR,CHAMPAIGN,IL,61821
627,Salvation Army/Food Pantry,2212 N Market PO BOX 618,CHAMPAIGN,IL,61822
455,Sam's CafÃ©,115 N Walnut,CHAMPAIGN,IL,61820
875,Sam's Club 8197 (Demo/Bak/Pizz/Deli),915 W Marketview DR,CHAMPAIGN,IL,61822
940,Sam's Club No. 8197 (Groc/Meat),915 W Marketview DR,CHAMPAIGN,IL,61820
429,Sammy's Pancake House,1206 N Mattis,CHAMPAIGN,IL,61821
484,Starbucks No. 9706,503 E Green ST,CHAMPAIGN,IL,61820
597,Steak n Shake,2009 N Kenyon RD,URBANA,IL,61802
437,Steak n Shake No. 11,1709 S Neil ST,CHAMPAIGN,IL,61820
649,Steak n Shake No. 204,2010 N Prospect,CHAMPAIGN,IL,61821
1500,Stevick Senior Center (Food Pantry),15 Main ST,CHAMPAIGN,IL,61820
2605,Stone Creek Food Pantry - Rantoul,3105 N Maplewood DR,RANTOUL,IL,61866
2097,Stone Creek Food Pantry @ Grace UMC,2004 S Philo RD,URBANA,IL,61801
1710,Stratton Elem. School (Summer Food),902 N Randolph ST,CHAMPAIGN,IL,61820
851,Stratton School,902 N Randolph,CHAMPAIGN,IL,61820
2273,Strawberry Field Store,306 W Springfield AVE,URBANA,IL,61801
2399,San Maru,2504 Village Green PL,CHAMPAIGN,IL,61822
121,Sangamon Elem. School,601 E Jefferson,MAHOMET,IL,61853
585,Sarku Japan,2000 N Neil,CHAMPAIGN,IL,61820
1115,Save-a-Lot No. 477,220 N. Broadway,URBANA,IL,61801
187,Savoy Head Start,310 W Church,SAVOY,IL,61874
2657,Savoy United Methodist Church,3002 W Old Church RD,CHAMPAIGN,IL,61822
669,Sbarro at Illini Union,1401 W Green ST,URBANA,IL,61801
2760,SBL Peace Meal @ Round Barn,2000 W John ST,CHAMPAIGN,IL,61821
2761,SBL Peace Meal @ Steer Place,1202 E Harding DR,URBANA,IL,61801
2762,SBL Peace Meal @ Sunnycrest,1004 E Sunnycrest DR,URBANA,IL,61801
86,Subway,1005 S Purnell,MAHOMET,IL,61853
1347,Subway,104 N Long,TOLONO,IL,61880
345,Subway,1319 N Dunlap,SAVOY,IL,61874
2505,Subway,1713 W Kirby AVE,CHAMPAIGN,IL,61822
2662,Subway,220 E Warren ST,ST. JOSEPH,IL,61873
1098,Subway,2409 Village Green PL,CHAMPAIGN,IL,61822
1298,Subway,2740 S Philo RD STE A,URBANA,IL,61802
1203,Subway,333 S Century,RANTOUL,IL,61866
481,Subway,45 E University,CHAMPAIGN,IL,61822
64,Subway,703 Eastwood,MAHOMET,IL,61853
967,Subway,706 Marketview DR,CHAMPAIGN,IL,61821
2252,Subway,725 W Champaign AVE,RANTOUL,IL,61866
674,Subway,802 W University,URBANA,IL,61801
1714,Subway @ Wal-Mart,100 S High Cross RD,URBANA,IL,61802
1715,Subway @ Wal-Mart,2610 N Prospect AVE,CHAMPAIGN,IL,61821
1791,Subway @ Wal-Mart,505 S Dunlap AVE,SAVOY,IL,61874
2506,Subway No. 17464,610 E Daniel ST,CHAMPAIGN,IL,61820
2346,Subway No. 32309,701 S Gregory DR,URBANA,IL,61801
2508,Subway No. 47229,4202 W Springfield AVE,CHAMPAIGN,IL,61821
2345,Subway No. 5371,1101 N Mattis AVE,CHAMPAIGN,IL,61821
2344,Subway No. 642,616 E Green ST STE A,CHAMPAIGN,IL,61820
2507,Subway No. 7480,1401 S Neil ST,CHAMPAIGN,IL,61820
809,Sun Singer Wine & Spirits,1115 W Windsor,CHAMPAIGN,IL,61821
767,Sunny China Buffet,1703 S Philo RD,URBANA,IL,61802
1753,Super 8,202 W Marketview DR,CHAMPAIGN,IL,61820
2495,Super Niro's Gyros,608 W Town Center BLVD,CHAMPAIGN,IL,61822
1972,Super Taco,519 W Town Center BLVD,CHAMPAIGN,IL,61822
1368,Super Wok,1737 W Kirby AVE,CHAMPAIGN,IL,61821
1668,Sushi Ichiban,619 S Wright ST,CHAMPAIGN,IL,61820
806,Sushi Kame,132 W Church ST,CHAMPAIGN,IL,61820
2379,Sushi Nara Express @ County Market,331 E Stoughton ST,CHAMPAIGN,IL,61820
2572,Sushi Nara Express @ Harvest Market,2029 S Neil ST,CHAMPAIGN,IL,61820
1259,Sushi Rock,621 E Green ST,CHAMPAIGN,IL,61820
2593,Sushi With Gusto @ Mahomet IGA,202 Eastwood DR,MAHOMET,IL,61853
832,Swann Special Care Center,109 Kenwood RD,CHAMPAIGN,IL,61821
11,Sweet Designs,"703 Eastwood Ctr. Dr., Ste. B",MAHOMET,IL,61853
1474,Sweet Indulgence,1121 W Windsor RD,CHAMPAIGN,IL,61821
99,Sweet Memories,2205 E 3000N Rd./US 136,GIFFORD,IL,61847
1781,Sylvia's Irish inn,312 W Green ST,URBANA,IL,61801
1059,Schnuck's (Deli),1301 Savoy Plaza LN,SAVOY,IL,61874
1808,Schnuck's (Groc),109 N Mattis AVE,CHAMPAIGN,IL,61821
168,Schnuck's (Groc),1301 Savoy Plaza LN,SAVOY,IL,61874
1061,Schnuck's (Mt/Sfd/Bak/Prod),1301 Savoy Plaza LN,SAVOY,IL,61874
906,Schnucks (Bak/Mt/Sfd/Prod),109 N Mattis,CHAMPAIGN,IL,61821
876,Schnucks (Deli/Food Bar),109 N Mattis AVE,CHAMPAIGN,IL,61821
571,Schnucks (Deli/Food Bar),200 N Vine,URBANA,IL,61801
503,Schnucks (Mt/Sfd/Bak/Prod),200 N Vine,URBANA,IL,61801
783,Schnucks Market (Groc),200 N Vine,URBANA,IL,61801
1632,Schwan's Truck No. 13381,802 W Hickory,MAHOMET,IL,61853
733,Schwan's Truck No. 13793,802 W Hickory,MAHOMET,IL,61853
259,Schwan's Truck No. 14187,802 W Hickory,MAHOMET,IL,61853
244,Schwan's Truck No. 14238,802 W Hickory,MAHOMET,IL,61853
1630,Schwan's Truck No. 14239,802 W Hickory,MAHOMET,IL,61853
245,Schwan's Truck No. 14255,802 W Hickory,MAHOMET,IL,61853
254,Schwan's Truck No. 14336,802 W Hickory,MAHOMET,IL,61853
257,Schwan's Truck No. 14637,802 W Hickory,MAHOMET,IL,61853
252,Schwan's Truck No. 15105,802 W Hickory,MAHOMET,IL,61853
1631,Schwan's Truck No. 19784,802 W Hickory,MAHOMET,IL,61853
721,Schwan's Truck No. 19916,802 W Hickory,MAHOMET,IL,61853
275,Schwan's Truck No. 19928,802 W Hickory,MAHOMET,IL,61853
2135,Scotsman's Kitchen @ Marble's,104 W Tomaras AVE,SAVOY,IL,61874
2532,Scotty's Brewhouse,2001 S Neil ST,CHAMPAIGN,IL,61820
122,Second Cup,336 S Century BLVD,RANTOUL,IL,61866
317,Senator's Bar & Grill,801 N Dunlap,SAVOY,IL,61874
2408,Seoul Taco,608 S Sixth ST,CHAMPAIGN,IL,61820
1000,Seven Saints,32 Chester ST,CHAMPAIGN,IL,61820
1152,Sholem Pool,2200 W Sangamon,CHAMPAIGN,IL,61821
175,Shooters Bar & Grill,215 S Tanner,RANTOUL,IL,61866
748,Siam Terrace,212 W Main ST,URBANA,IL,61801
276,Sidney Dairy Barn,311 W Main,SIDNEY,IL,61877
2089,Sidney Dairy Barn Moo Mobile (County),311 W Main ST PO BOX 13,SIDNEY,IL,61877
1899,Sidney Saloon,204 S David ST PO BOX 80,SIDNEY,IL,61877
2438,Sigma Alpha Epsilon Fraternity,211 E Daniel ST,CHAMPAIGN,IL,61820
2448,Sigma Alpha Mu Fraternity,301 E Armory AVE,CHAMPAIGN,IL,61820
2451,Sigma Chi Fraternity,410 E John ST,CHAMPAIGN,IL,61820
2479,Sigma Delta Tau Sorority,1104 W Nevada ST,URBANA,IL,61801
2455,Sigma Nu Fraternity,1009 W Pennsylvania AVE,URBANA,IL,61801
2456,Sigma Phi Delta Fraternity,302 E Gregory DR,CHAMPAIGN,IL,61820
567,Silver Bullet Bar,1401 E Washington,URBANA,IL,61802
801,Silvercreek,402 N Race,URBANA,IL,61801
1993,Sitara Indian Restaurant & Lounge,114 S Race ST,URBANA,IL,61801
2647,Sitka Salmon Shares (Mobile Freezer),106 S Cherry ST,Galesburg,IL,61401
56,Skateland,208 W Curtis RD,SAVOY,IL,61874
2630,Slice Factory,625 E Green ST,CHAMPAIGN,IL,61820
2499,Slim Chickens,2037 S Neil ST,CHAMPAIGN,IL,61820
2688,Smoked (Mobile) @ S & S Foods,310 Tiffany CT STE E,CHAMPAIGN,IL,61822
2111,Smoky's House BBQ,1333 Savoy Plaza LN STE 8,SAVOY,IL,61874
1612,Smoothie King,1912 Round Barn RD UNIT A,CHAMPAIGN,IL,61821
2425,Smoothie King No. 1408,1904 S Neil ST,CHAMPAIGN,IL,61820
2248,Snow Meets Coffee,1 E Main ST STE 108,CHAMPAIGN,IL,61820
1694,Soccer Planet,2310 N Willow RD,URBANA,IL,61802
565,Soma,320 N Neil ST,CHAMPAIGN,IL,61820
176,Sonic Drive-In,101 Calvin,SAVOY,IL,61874
821,Sonic Drive-In,601 N Mattis,CHAMPAIGN,IL,61821
2402,South China,25 E Springfield AVE,CHAMPAIGN,IL,61820
950,South Side School,712 S Pine,CHAMPAIGN,IL,61820
2703,Spark Museum & Play Cafe / Lumen Events,142 Lincoln Square,URBANA,IL,61801
1584,Spoon House,616 E Green ST STE B,CHAMPAIGN,IL,61820
1572,Springer Cultural Center (Summer Food),301 N Randolph ST,CHAMPAIGN,IL,61820
953,St. John Lutheran School,509 S Mattis,CHAMPAIGN,IL,61821
61,St. Joseph Comm. Consd. School,"404 S Fifth St., Box 409",ST. JOSEPH,IL,61873
1241,St. Joseph Community Park Concessions,2007 E Grand,ST. JOSEPH,IL,61873
29,St. Joseph IGA (Deli/Bakery),205 N Main,ST. JOSEPH,IL,61873
213,St. Joseph IGA (Groc),205 N Main,ST. JOSEPH,IL,61873
117,St. Joseph Middle School,606 E Peters DR,ST. JOSEPH,IL,61873
125,St. Joseph-Odgen High School,"301 N Main, P.O. Box 890",ST. JOSEPH,IL,61873
1865,St. Joseph-Ogden H.S. Concession,301 N Main ST,ST. JOSEPH,IL,61873
2638,St. Luke C.M.E. Church (Food Pantry),809 N Fifth ST,CHAMPAIGN,IL,61820
126,St. Malachy School & Indoor Concession,"340 E Belle Ave., Ste. 1",RANTOUL,IL,61866
1885,St. Patrick's Catholic Church (Food Pantry),212 E Washington ST,TOLONO,IL,61880
946,St. Patrick's Church/Food Pantry,708 W Main ST,URBANA,IL,61801
1698,St. Thomas More Concessions (Outdoor),3901 N Mattis AVE,CHAMPAIGN,IL,61822
1499,St. Vincent DePaul @ HC (Food Pantry),405 W Clark ST,CHAMPAIGN,IL,61820
2050,Stagecoach at Gordyville,2203 CR 3000N,GIFFORD,IL,61847
2524,Star BBQ Restaurant,1209 Savoy Plaza LN,SAVOY,IL,61874
167,Star Karaoke,503 Lyndhurst Alley,SAVOY,IL,61874
2299,Starbuck's No. 25140,2011 S Neil ST,CHAMPAIGN,IL,61820
1029,Starbucks,102 N Vine ST,URBANA,IL,61802
931,Starbucks Coffee No. 10448,2702 N Prospect,CHAMPAIGN,IL,61822
291,T & T Tavern,101 N Century BLVD,RANTOUL,IL,61866
209,Taco Bell,715 W Champaign,RANTOUL,IL,61866
862,Taco Bell No. 16248,1003 W University AVE,URBANA,IL,61801
596,Taco Bell No. 19611,1910 W Springfield,CHAMPAIGN,IL,61821
1033,Taco Bell No. 21530,1707 S Neil ST,CHAMPAIGN,IL,61820
646,Taco Bell No. 2834,10 E Anthony DR,CHAMPAIGN,IL,61820
2596,Taco John's,902 Meijer DR STE 8,CHAMPAIGN,IL,61822
2558,Taco Motorizado (Commissary) @ Marble's,104 W Tomaras AVE,SAVOY,IL,61874
2256,Taco Motorizado (Mobile) @ Marble's,104 W Tomaras AVE,SAVOY,IL,61874
2496,Tacos Locos (Mobile) @ El Progreso,1001 W Bloomington RD,CHAMPAIGN,IL,61820
2280,Taipei Cafe,512 E Green ST STE C,CHAMPAIGN,IL,61820
1939,Tang Dynasty,140 Lincoln Square Mall,URBANA,IL,61801
2124,Tang Dynasty Express No. 1 (Mobile),140 Lincoln Square,URBANA,IL,61801
2681,Tang Dynasty Express No. 2 (Mobile),140 Lincoln SQ,URBANA,IL,61801
2633,Target Starbucks,2102 N Prospect AVE,CHAMPAIGN,IL,61822
1085,Target Store,2102 N Prospect AVE,CHAMPAIGN,IL,61821
2395,Taste of Thai,124 E Sangamon AVE,RANTOUL,IL,61866
2553,Tasty Fish Chicken @ Grill,705 N Neil ST,CHAMPAIGN,IL,61820
1847,TCBY,1731 W Kirby AVE,CHAMPAIGN,IL,61821
2705,Teavana No. 28383,2000 N Neil ST SPC 375,CHAMPAIGN,IL,61820
769,Texas Roadhouse,204 N Country Fair DR,CHAMPAIGN,IL,61821
1876,TGI Friday's No. 2136,103 W Marketview DR,CHAMPAIGN,IL,61820
1032,Thara Thai,912 Bloomington RD UNIT 1/2,CHAMPAIGN,IL,61820
2463,Theta Xi Fraternity,205 E Armory AVE,CHAMPAIGN,IL,61820
890,Thomas Paine School,1801 James Cherry DR,URBANA,IL,61801
1724,Thomasboro Elem. Concessions (Indoor),201 N Phillips,THOMASBORO,IL,61878
129,Thomasboro Grade School,201 N Phillips ST,THOMASBORO,IL,61878
88,Thomasboro Market,"608 N Commercial St., Box 128",THOMASBORO,IL,61878
54,Thornton's Gas & Food No. 385,101 Burwash DR,SAVOY,IL,61874
1443,Thornton's No. 386,101 S Mattis AVE,CHAMPAIGN,IL,61821
1673,Tienda Guatemala,408-B N Race ST,URBANA,IL,61801
1447,Tiger Tots/Lutheran School,311 E Madison W ST,PHILO,IL,61864
697,Timpone's,710 S Goodwin,URBANA,IL,61801
1911,Tin Roof Tavern,604 N Cunningham AVE,URBANA,IL,61802
2411,TK Cheesesteak (Mobile),112 E Congress,RANTOUL,IL,61866
2576,TK's Cheesesteak,112 E Congress AVE,RANTOUL,IL,61866
2666,Tolono It'll Do,102 N Long ST,TOLONO,IL,61880
124,Tolono Masonic Lodge,202 E Main,TOLONO,IL,61880
1863,Toro Loco,1601 N Cunningham AVE,URBANA,IL,61801
2581,Town & Country Catering (Mobile) @ Marble's,104 W Tomaras AVE,SAVOY,IL,61874
2146,TownPlace Suites,603 S Sixth ST,CHAMPAIGN,IL,61820
985,Toys R Us,40 Anthony DR,CHAMPAIGN,IL,61820
1751,Traxside Bar & Grill,4 E Holden ST,TOLONO,IL,61889
2466,Triangle Fraternity,112 E Daniel ST,CHAMPAIGN,IL,61820
446,Triple S Farm - Trailer,3078 County Hwy 33,Stewardson,IL,62463
1850,Triptych Brewing Company,1703 Woodfield DR,SAVOY,IL,61874
1158,TT Enterprise at U. Farmers Market,2714 High CT,URBANA,IL,61802
511,Tumble Inn,302 S Neil,CHAMPAIGN,IL,61820
2559,Uniplace Christian Church,403 S Wright ST,CHAMPAIGN,IL,61820
1573,United Community Church (Food Pantry),300 S Lincoln PO BOX 79,BROADLANDS,IL,61816
205,Unity East Elementary School,1638 CR 1000N,PHILO,IL,61864
2718,Unity H.S. Football Concessions (2 Outdoor Stands),1127 CR 800N,TOLONO,IL,61880
132,Unity High School,1127 CR 800 N,TOLONO,IL,61880
8,Unity Jr. High School & Indoor Concessions,1121 CR 800N,TOLONO,IL,61880
203,Unity West Elementary School,1035 CR 600N,TOLONO,IL,61880
208,Univ. of Illinois Golf Course,800 Hartwell DR,SAVOY,IL,61874
1892,University Food & Liquor,211 W University AVE,CHAMPAIGN,IL,61820
2689,University of Illinois Extension - INEP,201 W Kenyon RD STE 3,CHAMPAIGN,IL,61820
2548,Urbana Adult Education Ctr. (Summer Food),211 N Race ST,URBANA,IL,61801
1236,Urbana Country Club,100 E Country Club DR,URBANA,IL,61803
1890,Urbana Early Childhood School,2202 E Washington ST,URBANA,IL,61802
1723,Urbana Free Library Cafe,210 W Green ST,URBANA,IL,61801
1719,Urbana H.S. Concessions (Indoor),1002 S Race ST,URBANA,IL,61801
2640,Urbana Head Start,1603 E Mumford DR,URBANA,IL,61802
501,Urbana High School,1002 S Race,URBANA,IL,61801
2568,Urbana High School (Summer Food),1002 S Race ST,URBANA,IL,61801
1678,Urbana High School Concessions (Outdoor),1002 S Race ST,URBANA,IL,61801
534,Urbana Middle School,1201 S Vine,URBANA,IL,61801
1797,Urbana Mini Mart,1701 S Philo RD,URBANA,IL,61801
2017,Urbana Neighborhood Conn. Ctr. (Summer Food),1401 E Main ST,URBANA,IL,61801
1982,Urbana Neighborhood Connections Center,1401 E Main ST,URBANA,IL,61801
445,Urbana's Garden Restaurant,810 Killarney,URBANA,IL,61801
2166,V. Picasso,122 N Neil ST,CHAMPAIGN,IL,61820
441,ValuCheck (Groc/Mt/Prod),1914 Glenn Park DR,CHAMPAIGN,IL,61821
1937,Venue 51,51 E Green ST,CHAMPAIGN,IL,61820
469,VFW Post 5520,609 Edgebrook,CHAMPAIGN,IL,61820
625,VFW Post No. 630,1303 E Main ST,URBANA,IL,61802
2229,Villa,4114 W Springfield AVE,CHAMPAIGN,IL,61822
2141,Villa Pizza,2000 N Neil ST SPC 708,CHAMPAIGN,IL,61820
1271,Village of Rantoul (Summer Food),1306 Country Club LN,RANTOUL,IL,61866
1736,Village of Sidney Baseball Concessions,504 N Witt Park RD PO BOX 77,SIDNEY,IL,61877
1794,Village Pantry No. 5202,1201 N Mattis AVE,CHAMPAIGN,IL,61821
1806,Village Pantry No. 5207,401 N Market ST,OGDEN,IL,61859
2086,Villas of Holly Brook,68 E Airport RD,SAVOY,IL,61874
2249,Vine Street Marathon,508 S Vine ST,URBANA,IL,61802
553,Vineyard Church,1500 N Lincoln,URBANA,IL,61801
1536,Vineyard Church (Food Pantry),1802 N Lincoln AVE,URBANA,IL,61801
1370,Vinny's by the Slice & More,401 W Kirby AVE,CHAMPAIGN,IL,61820
977,Virginia Theatre,203 W Park AVE,CHAMPAIGN,IL,61820
2070,Voice KTV,24 E Green ST STE 8,CHAMPAIGN,IL,61820
229,Wal-Mart No. 1093 (Bak/Prod),845 Broadmeadow,RANTOUL,IL,61866
1763,Wal-Mart No. 1093 (Deli),845 Broadmeadow,RANTOUL,IL,61866
407,Wal-Mart No. 1093 (Groc/Meat),845 Broadmeadow,RANTOUL,IL,61866
778,Wal-Mart No. 1734 (Bak/Prod),2610 N Prospect,CHAMPAIGN,IL,61821
1793,Wal-Mart No. 1734 (Deli),2610 N Prospect AVE,CHAMPAIGN,IL,61821
1073,Wal-Mart No. 1734 (Groc/Mt),2610 N Prospect,CHAMPAIGN,IL,61821
90,Wal-mart No. 3255 (Bak/Prod),505 S Dunlap AVE,SAVOY,IL,61874
1762,Wal-Mart No. 3255 (Deli),505 S Dunlap AVE,SAVOY,IL,61874
107,Wal-mart No. 3255 (Groc/Mt),505 S Dunlap AVE,SAVOY,IL,61874
908,Wal-Mart No. 5403 (Bak/Prod),100 S High Cross RD,URBANA,IL,61802
1792,Wal-Mart No. 5403 (Deli),100 S High Cross RD,URBANA,IL,61802
1045,Wal-Mart No. 5403 (Groc/Mt),100 S High Cross RD,URBANA,IL,61802
879,Walgreens No. 09611,841 Bloomington RD,CHAMPAIGN,IL,61820
917,Walgreens No. 09921,1509 S Neil ST,CHAMPAIGN,IL,61820
145,Walgreens No. 09965,220 S Century BLVD,RANTOUL,IL,61866
1120,Walgreens No. 11368,1801 S Philo RD,URBANA,IL,61802
887,Walgreens No. 1156,407 E Green ST,CHAMPAIGN,IL,61820
1462,Walgreens No. 12868,104 N Lombard ST,MAHOMET,IL,61853
1895,Walgreens No. 15282 @ Christie Clinic,1801 W Windsor RD STE 101,CHAMPAIGN,IL,61821
1894,Walgreens No. 15283 @ Christie Clinic,101 W University AVE STE 102,CHAMPAIGN,IL,61820
678,Walgreens No. 4409,1713 W Springfield,CHAMPAIGN,IL,61821
864,Walgreens No. 9851,2402 Village Green PL,CHAMPAIGN,IL,61821
841,Walgreens No. 9852,302 E University,URBANA,IL,61801
1600,Washington Elementary School,606 E Grove,CHAMPAIGN,IL,61820
2370,Waterford at Bridle Brook,1505 Patton DR,MAHOMET,IL,61853
2270,Watson's Shack & Rail,211 N Neil ST,CHAMPAIGN,IL,61820
1883,Wayne's Kettle Korn,100 E Lincoln,Normal,IL,61761
1273,Wayne's Kettle Korn (Booth),100 E Lincoln,Normal,IL,61761
1891,Wedge Tequila Bar & Grill,415 N Neil ST,CHAMPAIGN,IL,61820
2383,Wendy's,2003 N Prospect AVE,CHAMPAIGN,IL,61822
2209,Wendy's,2015 S Neil ST,CHAMPAIGN,IL,61820
2128,Wendy's,505 N Cunningham AVE,URBANA,IL,61802
2047,Wendy's @ Illini Union,1401 W Green ST,URBANA,IL,61801
2523,Wesley Food Pantry @ Parkland College,2400 W Bradley AVE BLDG M,CHAMPAIGN,IL,61821
1720,Wesley United Methodist Church (Food Pantry),1203 W Green ST,URBANA,IL,61801
693,Western Bowl Bar & Snack Bar,917 Frances DR,CHAMPAIGN,IL,61821
766,Westview School,703 S Russell,CHAMPAIGN,IL,61820
2592,Wetzel's Pretzels,2000 N Neil ST SPC 5527,CHAMPAIGN,IL,61820
2494,Wheel House,109 N Main ST,ST. JOSEPH,IL,61873
2126,Which Wich,512 E Green ST,CHAMPAIGN,IL,61820
1953,Wienerschnitzel,2102 W Springfield AVE,CHAMPAIGN,IL,61821
2599,Wild Hare Bar & Grill,109 S Third ST,FISHER,IL,61843
898,Wiley School,1602 S Anderson,URBANA,IL,61801
2404,Willow Creek Farm,1766 CR 1850 N,URBANA,IL,61802
1974,Willow Pond Snack Bar,808 Golf Course RD,RANTOUL,IL,61866
2045,Willowbrook of Savoy,404 E Curtis RD,SAVOY,IL,61874
2283,Willowbrook of Savoy House No. 2,406 W Curtis AVE,SAVOY,IL,61874
2349,Willowbrook of Savoy No. 3,408 W Curtis RD,SAVOY,IL,61874
300,Windsor of Savoy,401 Burwash,SAVOY,IL,61874
2766,Windsor Road Christian Church (Food Pantry),2501 W Windsor RD,CHAMPAIGN,IL,61821
1478,Windy City,410 N Race ST,URBANA,IL,61801
1228,Wingate Inn,516 W Marketview DR,CHAMPAIGN,IL,61822
1772,Wingin' Out,301 E Green ST,CHAMPAIGN,IL,61820
1872,Wingstop Restaurant,512 S Neil ST,CHAMPAIGN,IL,61820
1493,Wok,703 Eastwood DR STE C,MAHOMET,IL,61853
2406,Wood n' Hog Barbeque,904 N Fourth ST,CHAMPAIGN,IL,61820
827,Woori Jib,710 S Sixth ST,CHAMPAIGN,IL,61820
2205,Wyndham Garden Hotel,1001 Killarney,URBANA,IL,61801
2528,Xinh Xinh Cafe,114 N Vine ST STE H,URBANA,IL,61802
2392,Y Eatery,1001 S Wright ST,CHAMPAIGN,IL,61820
919,Yankee Ridge School,2102 S Anderson,URBANA,IL,61801
2677,Ye Olde Donut Shoppe & Commissary,708 Killarney ST,URBANA,IL,61801
2196,Ye Olde Donut Shoppe (Booth),708 Killarney,URBANA,IL,61801
2641,Yo Yo's Frozen Yogurt,104 S Lombard ST,MAHOMET,IL,61853
2279,Yori Q/Sushi M,715 S Neil ST STE A `,CHAMPAIGN,IL,61820
2313,You Scream Ice Cream (Mobile) C-U,607 W Graham ST,Bloomington,IL,61701
1018,Za's,2006 W Springfield,CHAMPAIGN,IL,61821
1189,Za's on Neil,1905 N Neil ST,CHAMPAIGN,IL,61820
1154,Zahnd Park Concessions,2502 Staley RD,CHAMPAIGN,IL,61822
2691,Zybell House (Mobile Freezer) @ Bergie's,106 S Charter,Monticello,IL,61856
